{"type": "FeatureCollection", "features": [{"type": "Feature", "properties": {"place_id": 14688681, "osm_type": "relation", "osm_id": 402205, "place_rank": 20, "category": "boundary", "type": "administrative", "importance": 0.14673040283817804, "addresstype": "suburb", "name": "Antares", "display_name": "Antares, Maceió, Alagoas, Região Nordeste, Brasil"}, "bbox": [-35.7503987, -9.5949538, -35.7232538, -9.5577124], "geometry": {"type": "Polygon", "coordinates": [[[-35.7503987, -9.5714658], [-35.7487156, -9.5709565], [-35.7466987, -9.574446], [-35.7464546, -9.5744253], [-35.746276, -9.5744102], [-35.7457687, -9.5753511], [-35.7446213, -9.5767206], [-35.743643, -9.577852], [-35.743643, -9.5780426], [-35.743329, -9.5781617], [-35.7435706, -9.5785309], [-35.7431599, -9.5786619], [-35.7429667, -9.5793288], [-35.7425681, -9.5792454], [-35.7420971, -9.5794121], [-35.7418555, -9.5796622], [-35.7418555, -9.580091], [-35.7416019, -9.5802577], [-35.7415174, -9.5803768], [-35.7409014, -9.5813295], [-35.7405995, -9.5820322], [-35.739899, -9.5826753], [-35.7396491, -9.5851499], [-35.7399863, -9.5864134], [-35.7399998, -9.5872647], [-35.7401212, -9.5885282], [-35.7398919, -9.5889938], [-35.7399593, -9.5898849], [-35.7400268, -9.5903903], [-35.7406608, -9.5904834], [-35.7412003, -9.5912681], [-35.7420771, -9.5923854], [-35.7426436, -9.5938351], [-35.7427494, -9.5949538], [-35.7362725, -9.591777], [-35.733959, -9.5921783], [-35.73395, -9.5912852], [-35.7338513, -9.59042], [-35.7333797, -9.5890358], [-35.7328971, -9.5881382], [-35.7324145, -9.5875002], [-35.7318054, -9.5869294], [-35.7306329, -9.5878197], [-35.730579, -9.5875362], [-35.7307631, -9.5872572], [-35.7312663, -9.5868364], [-35.7308721, -9.5868272], [-35.7302404, -9.5869656], [-35.729735, -9.5869449], [-35.7290541, -9.5864327], [-35.7288295, -9.5861559], [-35.728661, -9.5858859], [-35.7279715, -9.5857523], [-35.727149, -9.5852285], [-35.7267891, -9.584654], [-35.7265149, -9.584147], [-35.725898, -9.5835894], [-35.7251782, -9.5835049], [-35.724527, -9.5835218], [-35.7239615, -9.5833697], [-35.7243672, -9.5821512], [-35.7238589, -9.580743], [-35.7234474, -9.579645], [-35.7236895, -9.5792154], [-35.723278, -9.5784516], [-35.7232538, -9.5776401], [-35.7238831, -9.5767331], [-35.7248514, -9.5763989], [-35.724803, -9.5758977], [-35.7262069, -9.575659], [-35.7263037, -9.5744417], [-35.7267878, -9.5737018], [-35.7265942, -9.5731051], [-35.7274898, -9.5718639], [-35.730104, -9.5700499], [-35.7307334, -9.5689042], [-35.730806, -9.5663025], [-35.7315806, -9.5653716], [-35.7326456, -9.5653477], [-35.7337591, -9.5649658], [-35.7344368, -9.5650374], [-35.7348241, -9.564918], [-35.7349452, -9.5642497], [-35.7366066, -9.5628204], [-35.7414776, -9.5577124], [-35.7432365, -9.5594842], [-35.7441484, -9.560314], [-35.745091, -9.5611248], [-35.7455305, -9.5618423], [-35.7457381, -9.5621783], [-35.7466219, -9.5643119], [-35.7470096, -9.5651917], [-35.7475743, -9.5661078], [-35.7503987, -9.5714658]]]}}]}