{"type": "FeatureCollection", "features": [{"type": "Feature", "properties": {"place_id": 14860416, "osm_type": "relation", "osm_id": 400722, "place_rank": 20, "category": "boundary", "type": "administrative", "importance": 0.14673040283817804, "addresstype": "suburb", "name": "Barro Duro", "display_name": "Barro Duro, Maceió, Alagoas, Região Nordeste, Brasil"}, "bbox": [-35.7292832, -9.6245532, -35.7089199, -9.6066948], "geometry": {"type": "Polygon", "coordinates": [[[-35.7292832, -9.6175287], [-35.7292736, -9.6176792], [-35.7292164, -9.6180743], [-35.7291496, -9.6183566], [-35.7292164, -9.6187141], [-35.7290693, -9.618842], [-35.7290058, -9.6189913], [-35.72904, -9.6192032], [-35.7289032, -9.6195115], [-35.7288641, -9.6197572], [-35.7288739, -9.6201425], [-35.728913, -9.6203593], [-35.7288788, -9.6206579], [-35.7286687, -9.6210096], [-35.7285026, -9.621472], [-35.7283023, -9.6217225], [-35.7282583, -9.6221608], [-35.7281313, -9.6222427], [-35.7279798, -9.6224064], [-35.7276916, -9.6229218], [-35.7277649, -9.623206], [-35.7276721, -9.6234276], [-35.7275548, -9.6234902], [-35.7274416, -9.6236505], [-35.7272324, -9.6238804], [-35.7269576, -9.62449], [-35.7268582, -9.6244476], [-35.7262298, -9.6242012], [-35.7256943, -9.6240111], [-35.7246589, -9.624173], [-35.7243591, -9.6243631], [-35.7241734, -9.6243772], [-35.7238449, -9.624342], [-35.723595, -9.6242505], [-35.7227525, -9.6238633], [-35.7224383, -9.6237577], [-35.7222812, -9.6236802], [-35.7221099, -9.6238281], [-35.7219313, -9.6240956], [-35.7215815, -9.6242153], [-35.7212245, -9.6244265], [-35.7206675, -9.6245532], [-35.7202891, -9.6245532], [-35.7196964, -9.6243772], [-35.7193751, -9.6243561], [-35.7191823, -9.6242364], [-35.7189752, -9.6242223], [-35.7186325, -9.6241167], [-35.7182684, -9.6239337], [-35.7181184, -9.6236873], [-35.718147, -9.6233212], [-35.7182112, -9.6230889], [-35.7179756, -9.6228214], [-35.7178042, -9.6224976], [-35.7166915, -9.6225506], [-35.7160967, -9.622579], [-35.71604, -9.6225969], [-35.7160809, -9.6228652], [-35.7161268, -9.6230487], [-35.7148789, -9.6231637], [-35.7139289, -9.6233442], [-35.7138867, -9.6231071], [-35.7137575, -9.6223185], [-35.7135611, -9.6220281], [-35.7135701, -9.6215881], [-35.713222, -9.6212185], [-35.7131952, -9.6210601], [-35.7128828, -9.6206993], [-35.7118921, -9.6192209], [-35.7116957, -9.6180857], [-35.7115351, -9.6180769], [-35.7113833, -9.6172321], [-35.7112762, -9.6172321], [-35.7111691, -9.6168185], [-35.7100624, -9.6168713], [-35.7095983, -9.6166601], [-35.7092055, -9.6163345], [-35.7089646, -9.6159297], [-35.7089199, -9.6144425], [-35.7096072, -9.6143017], [-35.7099731, -9.6142489], [-35.7103658, -9.6143281], [-35.7109051, -9.6141824], [-35.7111781, -9.6141257], [-35.7113298, -9.6138529], [-35.7114547, -9.6135361], [-35.7120795, -9.6130521], [-35.713097, -9.6121809], [-35.7137039, -9.6118289], [-35.7147413, -9.6112672], [-35.7145313, -9.6111449], [-35.714684, -9.6109661], [-35.7150084, -9.6110132], [-35.7152374, -9.6107686], [-35.7155714, -9.6104487], [-35.7153997, -9.6102135], [-35.7155333, -9.610157], [-35.7154474, -9.6099783], [-35.715705, -9.609856], [-35.7158291, -9.6100347], [-35.7166592, -9.6090657], [-35.7166592, -9.6086423], [-35.7165829, -9.6085388], [-35.7167833, -9.6083506], [-35.7167546, -9.6079178], [-35.7169073, -9.6077297], [-35.7172031, -9.607598], [-35.7177757, -9.6077015], [-35.7183577, -9.6077673], [-35.7188253, -9.6076638], [-35.7189016, -9.6073533], [-35.7195696, -9.6066948], [-35.7207433, -9.6067324], [-35.7208196, -9.6070052], [-35.7212776, -9.6077485], [-35.7213635, -9.6084086], [-35.72082, -9.6091372], [-35.7185054, -9.6117865], [-35.7181329, -9.6123766], [-35.7179017, -9.6129996], [-35.7176234, -9.6144978], [-35.7175077, -9.6153549], [-35.717614, -9.6155152], [-35.7177923, -9.6155182], [-35.7190539, -9.6141199], [-35.727661, -9.6140853], [-35.7279377, -9.614631], [-35.7279377, -9.6148286], [-35.7280904, -9.6148756], [-35.7283099, -9.6150449], [-35.7282431, -9.6152237], [-35.7285675, -9.6154213], [-35.7287202, -9.6156282], [-35.728787, -9.6158917], [-35.7286629, -9.6162398], [-35.7285198, -9.6165126], [-35.7284434, -9.6167854], [-35.7284816, -9.6169454], [-35.7288919, -9.6170489], [-35.7291985, -9.6172469], [-35.7292832, -9.6175287]]]}}]}