{"type": "FeatureCollection", "features": [{"type": "Feature", "properties": {"place_id": 14837405, "osm_type": "relation", "osm_id": 401090, "place_rank": 20, "category": "boundary", "type": "administrative", "importance": 0.13339706950484473, "addresstype": "suburb", "name": "Bebedouro", "display_name": "Bebedouro, Maceió, Alagoas, Região Nordeste, Brasil"}, "bbox": [-35.7785412, -9.633855, -35.7441646, -9.6032155], "geometry": {"type": "Polygon", "coordinates": [[[-35.7785412, -9.6096823], [-35.7783348, -9.6101909], [-35.7770509, -9.6116828], [-35.7759963, -9.612587], [-35.7750104, -9.6137625], [-35.7725525, -9.6157553], [-35.7700206, -9.6166922], [-35.7681437, -9.6182722], [-35.7663087, -9.6192829], [-35.7642576, -9.6209847], [-35.763203, -9.6213125], [-35.7616325, -9.6213803], [-35.7592481, -9.6222619], [-35.7586061, -9.622827], [-35.7583768, -9.6235164], [-35.7573337, -9.6243415], [-35.7566917, -9.62511], [-35.7563593, -9.6251779], [-35.7562676, -9.6256412], [-35.7556714, -9.6260255], [-35.7551785, -9.6263081], [-35.7544219, -9.6265341], [-35.7538488, -9.6271444], [-35.7538831, -9.6277886], [-35.7536424, -9.628139], [-35.7532183, -9.6285911], [-35.7532297, -9.6291901], [-35.7530922, -9.6295857], [-35.7535507, -9.6301169], [-35.7536539, -9.6308967], [-35.7528973, -9.6309984], [-35.7522783, -9.6314392], [-35.7515721, -9.6337124], [-35.7502382, -9.6331975], [-35.7499007, -9.633855], [-35.7488427, -9.6332178], [-35.7496933, -9.6314029], [-35.7493499, -9.6312591], [-35.7494426, -9.6307225], [-35.7470868, -9.6297333], [-35.7472063, -9.6294288], [-35.7467782, -9.6292329], [-35.7467052, -9.629197], [-35.7442018, -9.628054], [-35.7450144, -9.6266816], [-35.7447318, -9.6263253], [-35.7445149, -9.6261309], [-35.7444361, -9.6259819], [-35.7442849, -9.6257422], [-35.7442981, -9.6256774], [-35.7441646, -9.6254177], [-35.7446273, -9.6254049], [-35.7448858, -9.6252743], [-35.7451351, -9.6252093], [-35.745714, -9.6248078], [-35.7460858, -9.6245049], [-35.7459481, -9.6239328], [-35.745807, -9.6235532], [-35.7455503, -9.6232241], [-35.7453064, -9.6231103], [-35.7451267, -9.6233633], [-35.7449085, -9.6235279], [-35.744947, -9.6231103], [-35.744716, -9.6232621], [-35.744562, -9.623414], [-35.7444593, -9.6232495], [-35.7446261, -9.6229458], [-35.7446903, -9.6227559], [-35.7443939, -9.6224954], [-35.7448348, -9.6213041], [-35.7450308, -9.6209696], [-35.7454158, -9.6213366], [-35.7458137, -9.6215644], [-35.7462758, -9.6217542], [-35.746956, -9.6218681], [-35.7473154, -9.6218301], [-35.7477133, -9.6219693], [-35.748201, -9.621944], [-35.7484962, -9.6217162], [-35.7486759, -9.6213493], [-35.7486117, -9.6208557], [-35.748894, -9.6210818], [-35.7491711, -9.6212599], [-35.7494791, -9.6214768], [-35.749719, -9.6216934], [-35.7497557, -9.6218526], [-35.7497679, -9.622272], [-35.7498829, -9.6223854], [-35.7516405, -9.6231862], [-35.7519548, -9.6240361], [-35.752124, -9.6244884], [-35.752335, -9.624778], [-35.7525855, -9.6243129], [-35.7546179, -9.623698], [-35.7550771, -9.6234522], [-35.7562287, -9.6227253], [-35.7568803, -9.6223279], [-35.7610252, -9.6208442], [-35.7631414, -9.6200428], [-35.7624293, -9.6180558], [-35.7628055, -9.6183869], [-35.7630742, -9.6184532], [-35.7634168, -9.6183671], [-35.76427, -9.6180624], [-35.7646327, -9.6180028], [-35.7650224, -9.6177776], [-35.7659091, -9.6173404], [-35.7661241, -9.6173272], [-35.7664734, -9.6169099], [-35.7669504, -9.6163933], [-35.7677162, -9.615817], [-35.7679379, -9.6155786], [-35.7683343, -9.6153998], [-35.7686567, -9.615307], [-35.7691539, -9.614797], [-35.7695569, -9.6145122], [-35.7699533, -9.6144261], [-35.7704974, -9.6144129], [-35.7708804, -9.6143731], [-35.7713036, -9.6142804], [-35.7715925, -9.6139956], [-35.7717671, -9.6136313], [-35.7718545, -9.613161], [-35.7716261, -9.6127835], [-35.7699782, -9.611527], [-35.7697255, -9.6113678], [-35.7693394, -9.6113955], [-35.7691638, -9.6115062], [-35.7686215, -9.6111143], [-35.7686544, -9.6108006], [-35.7690493, -9.6108439], [-35.7694991, -9.6107033], [-35.7699488, -9.6105519], [-35.7703328, -9.6104437], [-35.7712103, -9.6107574], [-35.7718685, -9.6110494], [-35.7723073, -9.6112008], [-35.7725266, -9.6108115], [-35.7722085, -9.6101409], [-35.771671, -9.6095136], [-35.7710787, -9.6092216], [-35.7705631, -9.6094595], [-35.7701243, -9.6090269], [-35.7697623, -9.6086159], [-35.7696636, -9.6081941], [-35.76951, -9.6074046], [-35.7694003, -9.6067773], [-35.7694624, -9.6063335], [-35.7696754, -9.605659], [-35.7702137, -9.604874], [-35.7706062, -9.604664], [-35.7712229, -9.6043765], [-35.771436, -9.6041001], [-35.7718958, -9.6032155], [-35.7752038, -9.6045866], [-35.7747353, -9.6064158], [-35.7749989, -9.6090493], [-35.7753658, -9.6090606], [-35.7761453, -9.6096145], [-35.7764433, -9.6099535], [-35.7765694, -9.609524], [-35.7764777, -9.6091511], [-35.7766153, -9.6087102], [-35.7772687, -9.6083712], [-35.7775668, -9.6083147], [-35.7777387, -9.6080999], [-35.7778648, -9.6081677], [-35.7778533, -9.6083938], [-35.7781055, -9.608925], [-35.7780941, -9.6097614], [-35.7785412, -9.6096823]]]}}]}