{"type": "FeatureCollection", "features": [{"type": "Feature", "properties": {"place_id": 383825477, "osm_type": "relation", "osm_id": 402896, "place_rank": 20, "category": "boundary", "type": "administrative", "importance": 0.14673040283817804, "addresstype": "suburb", "name": "Benedito Bentes", "display_name": "Benedito Bentes, Maceió, Alagoas, Região Nordeste, Brasil"}, "bbox": [-35.7487136, -9.5943874, -35.6792944, -9.5325626], "geometry": {"type": "Polygon", "coordinates": [[[-35.7487136, -9.5325626], [-35.7374481, -9.5534135], [-35.7371919, -9.5536133], [-35.7401605, -9.5564527], [-35.7402786, -9.5565656], [-35.7414776, -9.5577124], [-35.7366066, -9.5628204], [-35.7349452, -9.5642497], [-35.7348241, -9.564918], [-35.7344368, -9.5650374], [-35.7337591, -9.5649658], [-35.7326456, -9.5653477], [-35.7315806, -9.5653716], [-35.730806, -9.5663025], [-35.7307334, -9.5689042], [-35.730104, -9.5700499], [-35.7274898, -9.5718639], [-35.7265942, -9.5731051], [-35.7267878, -9.5737018], [-35.7263037, -9.5744417], [-35.7262069, -9.575659], [-35.724803, -9.5758977], [-35.7248514, -9.5763989], [-35.7238831, -9.5767331], [-35.7232538, -9.5776401], [-35.723278, -9.5784516], [-35.7236895, -9.5792154], [-35.7234474, -9.579645], [-35.7238589, -9.580743], [-35.7243672, -9.5821512], [-35.7239615, -9.5833697], [-35.7225627, -9.5840678], [-35.721828, -9.5846054], [-35.720471, -9.5851894], [-35.7199751, -9.5855189], [-35.7194556, -9.5854999], [-35.7192339, -9.5860828], [-35.7192029, -9.5870133], [-35.71726, -9.5889364], [-35.7161568, -9.5902079], [-35.7154167, -9.5916569], [-35.7144174, -9.5927267], [-35.7138851, -9.593035], [-35.7134535, -9.5932452], [-35.7133541, -9.593644], [-35.7130936, -9.5939549], [-35.7122162, -9.5942658], [-35.7109138, -9.5943874], [-35.7100501, -9.593671], [-35.7098993, -9.5931168], [-35.7097485, -9.5920354], [-35.7092412, -9.5910756], [-35.708405, -9.5898455], [-35.7075481, -9.5882133], [-35.7075481, -9.5843494], [-35.705227, -9.5823579], [-35.705016, -9.5805448], [-35.7019715, -9.5774239], [-35.7006753, -9.5779292], [-35.6998012, -9.5787912], [-35.6985653, -9.5787912], [-35.6973897, -9.5782561], [-35.6959729, -9.5776617], [-35.6942849, -9.5778994], [-35.6929887, -9.5789695], [-35.6926251, -9.5800114], [-35.6918525, -9.5797409], [-35.6897761, -9.5773874], [-35.6890514, -9.5772505], [-35.6873504, -9.57528], [-35.6879546, -9.5740092], [-35.6877344, -9.5735021], [-35.6877832, -9.5731737], [-35.6875467, -9.572978], [-35.68723, -9.5731138], [-35.6860052, -9.5725714], [-35.6853955, -9.5728047], [-35.6847337, -9.572695], [-35.6846767, -9.5727405], [-35.6840264, -9.5726271], [-35.683766, -9.5724238], [-35.6834216, -9.5721451], [-35.6833652, -9.5718841], [-35.683561, -9.5717146], [-35.6833093, -9.5715263], [-35.6830896, -9.571138], [-35.6829421, -9.5706304], [-35.682986, -9.5703688], [-35.6827224, -9.5701554], [-35.6828835, -9.569873], [-35.6828265, -9.569612], [-35.6828368, -9.5694536], [-35.6829741, -9.5693172], [-35.6830185, -9.5691921], [-35.6829035, -9.5690669], [-35.6825846, -9.5689353], [-35.6819174, -9.5684507], [-35.6818697, -9.5681255], [-35.6823427, -9.5681897], [-35.6827766, -9.568117], [-35.6829111, -9.5676976], [-35.6822071, -9.5665958], [-35.6823969, -9.5659518], [-35.6809931, -9.5620577], [-35.6792944, -9.559202], [-35.7210894, -9.5348949], [-35.7487136, -9.5325626]]]}}]}