{"type": "FeatureCollection", "features": [{"type": "Feature", "properties": {"place_id": 14853209, "osm_type": "relation", "osm_id": 400216, "place_rank": 20, "category": "boundary", "type": "administrative", "importance": 0.14673040283817804, "addresstype": "suburb", "name": "Bom Parto", "display_name": "Bom Parto, Maceió, Alagoas, Região Nordeste, Brasil"}, "bbox": [-35.7470475, -9.6557554, -35.737389, -9.6443044], "geometry": {"type": "Polygon", "coordinates": [[[-35.7470475, -9.6545321], [-35.7466514, -9.6556086], [-35.7455939, -9.6557554], [-35.7432549, -9.6550954], [-35.7409292, -9.6542771], [-35.7393657, -9.653544], [-35.7390699, -9.6534983], [-35.7385105, -9.6535823], [-35.7381493, -9.6535697], [-35.7377658, -9.6534057], [-35.737389, -9.6530232], [-35.7375057, -9.6525085], [-35.7384421, -9.6522088], [-35.7392026, -9.6527099], [-35.7399193, -9.6529009], [-35.7402338, -9.6528396], [-35.7405555, -9.6523206], [-35.7408298, -9.6522088], [-35.7411369, -9.6514878], [-35.7424812, -9.6484547], [-35.7433664, -9.6460793], [-35.7433552, -9.6453752], [-35.7432659, -9.6450232], [-35.7433932, -9.6443866], [-35.7436453, -9.6444423], [-35.7436864, -9.6443044], [-35.7438768, -9.6444926], [-35.7462489, -9.6457171], [-35.7462454, -9.6478175], [-35.7464377, -9.6496615], [-35.7464377, -9.6500797], [-35.7462621, -9.6501409], [-35.7461342, -9.6503284], [-35.7457868, -9.650469], [-35.7457868, -9.6506204], [-35.7452645, -9.6523148], [-35.7454859, -9.652695], [-35.745628, -9.6532836], [-35.7458264, -9.6533869], [-35.7459032, -9.6535992], [-35.7461503, -9.6537764], [-35.7462215, -9.6540145], [-35.746172, -9.6542599], [-35.7470475, -9.6545321]]]}}]}