{"type": "FeatureCollection", "features": [{"type": "Feature", "properties": {"place_id": 14807373, "osm_type": "relation", "osm_id": 402039, "place_rank": 20, "category": "boundary", "type": "administrative", "importance": 0.14673040283817804, "addresstype": "suburb", "name": "Canaã", "display_name": "Canaã, Maceió, Alagoas, Região Nordeste, Brasil"}, "bbox": [-35.7433905, -9.6102757, -35.7330044, -9.6001326], "geometry": {"type": "Polygon", "coordinates": [[[-35.7433905, -9.6045359], [-35.7431671, -9.604627], [-35.7431292, -9.6046425], [-35.742869, -9.6047878], [-35.7426799, -9.6049237], [-35.7423919, -9.6051307], [-35.742002, -9.6054751], [-35.7418751, -9.6056109], [-35.7415225, -9.6059883], [-35.7414236, -9.6060941], [-35.741117, -9.6065628], [-35.7410809, -9.606618], [-35.7407886, -9.6071954], [-35.740578, -9.6077111], [-35.7404292, -9.6082938], [-35.7402753, -9.6094556], [-35.7401766, -9.6102757], [-35.7333432, -9.6045814], [-35.7335578, -9.6041163], [-35.7336032, -9.6038569], [-35.7334943, -9.6035348], [-35.7330044, -9.6032218], [-35.7331677, -9.6029445], [-35.7334126, -9.6029355], [-35.7335124, -9.6031323], [-35.7338663, -9.6030428], [-35.7340114, -9.6026671], [-35.7338209, -9.6023988], [-35.7345794, -9.6021458], [-35.735015, -9.60228], [-35.7354098, -9.6022532], [-35.7357773, -9.6019713], [-35.736349, -9.601864], [-35.7367166, -9.6019982], [-35.7371658, -9.6018371], [-35.7374108, -9.6015284], [-35.7376694, -9.601166], [-35.7381867, -9.6009513], [-35.7385814, -9.600911], [-35.7394118, -9.6003742], [-35.7402013, -9.6001326], [-35.7399563, -9.6005755], [-35.7396976, -9.6010721], [-35.7397425, -9.6014341], [-35.7433905, -9.6045359]]]}}]}