{"type": "FeatureCollection", "features": [{"type": "Feature", "properties": {"name": "Centro", "fonte": "overpass_boundary_administrative", "osm_relation_id": 400298, "aviso": "poligono reconstruido a partir da relation administrativa do OSM; um trecho da fronteira (onde a relation do OSM esta incompleta) foi fechado com uma linha reta entre os dois pontos soltos, o resto vem de dados reais do OSM"}, "geometry": {"type": "Polygon", "coordinates": [[[-35.7296179, -9.6608516], [-35.7296901, -9.661698], [-35.7291915, -9.6617924], [-35.729226, -9.6619248], [-35.7313774, -9.6636077], [-35.7330406, -9.6646232], [-35.7342881, -9.6653848], [-35.7345934, -9.6651035], [-35.7344679, -9.6649065], [-35.7339257, -9.6643889], [-35.7341829, -9.6640186], [-35.7344714, -9.6641859], [-35.7347381, -9.6642399], [-35.7351472, -9.6641426], [-35.7353747, -9.6640138], [-35.7354869, -9.6638762], [-35.7356103, -9.6636889], [-35.7356564, -9.6636189], [-35.7358073, -9.6633716], [-35.7358983, -9.6631093], [-35.7359809, -9.6629115], [-35.736019, -9.6627273], [-35.7360337, -9.6625976], [-35.7367064, -9.6613839], [-35.7375488, -9.660059], [-35.7378192, -9.6596156], [-35.7379558, -9.6593613], [-35.7381798, -9.6591281], [-35.7382548, -9.6588279], [-35.7382923, -9.6583086], [-35.7386665, -9.6563339], [-35.7390699, -9.6554804], [-35.7392048, -9.6549178], [-35.7393498, -9.6544254], [-35.7371091, -9.6534215], [-35.737389, -9.6530232], [-35.7377658, -9.6534057], [-35.7381493, -9.6535697], [-35.7385105, -9.6535823], [-35.7390699, -9.6534983], [-35.7393657, -9.653544], [-35.7409292, -9.6542771], [-35.7403904, -9.6556599], [-35.7397335, -9.6574388], [-35.7397093, -9.6575345], [-35.7397005, -9.657686], [-35.7397036, -9.6579179], [-35.7397648, -9.6581172], [-35.7398157, -9.6582689], [-35.7400271, -9.658695], [-35.7402113, -9.6588874], [-35.7404232, -9.6590504], [-35.7407963, -9.6592679], [-35.7417011, -9.6598309], [-35.7429528, -9.6608662], [-35.7433914, -9.6617917], [-35.7433826, -9.6618714], [-35.7430057, -9.6640181], [-35.7428805, -9.6644783], [-35.7431048, -9.6644645], [-35.7432623, -9.6644751], [-35.7433647, -9.6652554], [-35.7434464, -9.6656869], [-35.7434834, -9.6660474], [-35.7433867, -9.6673855], [-35.7432853, -9.6678031], [-35.7431133, -9.6681953], [-35.7429326, -9.6684721], [-35.7426906, -9.6687102], [-35.7424015, -9.6689003], [-35.7421016, -9.6690182], [-35.7419106, -9.669101], [-35.7418058, -9.6720751], [-35.7400591, -9.6716026], [-35.7358652, -9.6708956], [-35.7324817, -9.6707537], [-35.731357, -9.6710233], [-35.7296179, -9.6608516]]]}}]}