{"type": "FeatureCollection", "features": [{"type": "Feature", "properties": {"place_id": 14905561, "osm_type": "relation", "osm_id": 401794, "place_rank": 20, "category": "boundary", "type": "administrative", "importance": 0.14673040283817804, "addresstype": "suburb", "name": "Chã da Jaqueira", "display_name": "Chã da Jaqueira, Maceió, Alagoas, Região Nordeste, Brasil"}, "bbox": [-35.7559537, -9.6231862, -35.7414576, -9.610841], "geometry": {"type": "Polygon", "coordinates": [[[-35.7559537, -9.6153281], [-35.7554606, -9.6160189], [-35.7539077, -9.6194089], [-35.7537463, -9.6197222], [-35.7523125, -9.6206557], [-35.7519717, -9.6211189], [-35.7516995, -9.621667], [-35.7515922, -9.6220721], [-35.751562, -9.6227093], [-35.7515984, -9.6229869], [-35.7516405, -9.6231862], [-35.7498829, -9.6223854], [-35.7497679, -9.622272], [-35.7497557, -9.6218526], [-35.749719, -9.6216934], [-35.7494791, -9.6214768], [-35.7491711, -9.6212599], [-35.748894, -9.6210818], [-35.7486117, -9.6208557], [-35.7486759, -9.6213493], [-35.7484962, -9.6217162], [-35.748201, -9.621944], [-35.7477133, -9.6219693], [-35.7473154, -9.6218301], [-35.746956, -9.6218681], [-35.7462758, -9.6217542], [-35.7458137, -9.6215644], [-35.7454158, -9.6213366], [-35.7450308, -9.6209696], [-35.7448348, -9.6213041], [-35.7446356, -9.6211727], [-35.7442909, -9.6212364], [-35.7439138, -9.6208965], [-35.7430951, -9.6207053], [-35.7421902, -9.6205141], [-35.7415007, -9.6193883], [-35.7416408, -9.618974], [-35.7414576, -9.6187722], [-35.7416558, -9.6185221], [-35.7421897, -9.618041], [-35.7426786, -9.6174494], [-35.7431439, -9.6168449], [-35.7436466, -9.6163598], [-35.7436836, -9.6145006], [-35.7432459, -9.6132384], [-35.7431163, -9.6122996], [-35.7433662, -9.6122441], [-35.74385, -9.6118587], [-35.7441948, -9.6115294], [-35.7446149, -9.6115507], [-35.7449596, -9.611625], [-35.7452074, -9.6114763], [-35.7457891, -9.6114338], [-35.74622, -9.6115294], [-35.7472016, -9.6113016], [-35.7472547, -9.6110137], [-35.7474087, -9.6108672], [-35.7476634, -9.610841], [-35.7478386, -9.6109718], [-35.7480138, -9.6111917], [-35.7482904, -9.6114287], [-35.7488918, -9.6109535], [-35.7493923, -9.6114536], [-35.7495848, -9.6112573], [-35.7504009, -9.6109695], [-35.7506265, -9.6116433], [-35.7506464, -9.6118527], [-35.7507393, -9.6121798], [-35.7509185, -9.6122975], [-35.7515886, -9.6123172], [-35.7515223, -9.6127359], [-35.7512635, -9.6130434], [-35.751854, -9.6135929], [-35.7531147, -9.6139658], [-35.7529555, -9.6146985], [-35.7549262, -9.6160135], [-35.7554172, -9.6153396], [-35.7557755, -9.6152611], [-35.7559537, -9.6153281]]]}}]}