{"type": "FeatureCollection", "features": [{"type": "Feature", "properties": {"place_id": 14643935, "osm_type": "relation", "osm_id": 401482, "place_rank": 20, "category": "boundary", "type": "administrative", "importance": 0.14673040283817804, "addresstype": "suburb", "name": "Chã de Bebedouro", "display_name": "Chã de Bebedouro, Maceió, Alagoas, Região Nordeste, Brasil"}, "bbox": [-35.7639593, -9.624778, -35.751562, -9.6132494], "geometry": {"type": "Polygon", "coordinates": [[[-35.7639593, -9.6150282], [-35.7618243, -9.6175799], [-35.7618305, -9.617739], [-35.7620229, -9.6177023], [-35.7621284, -9.6178614], [-35.7622774, -9.6179348], [-35.762265, -9.6181612], [-35.7624293, -9.6180558], [-35.7631414, -9.6200428], [-35.7610252, -9.6208442], [-35.7568803, -9.6223279], [-35.7562287, -9.6227253], [-35.7550771, -9.6234522], [-35.7546179, -9.623698], [-35.7525855, -9.6243129], [-35.752335, -9.624778], [-35.752124, -9.6244884], [-35.7519548, -9.6240361], [-35.7516405, -9.6231862], [-35.7515984, -9.6229869], [-35.751562, -9.6227093], [-35.7515922, -9.6220721], [-35.7516995, -9.621667], [-35.7519717, -9.6211189], [-35.7523125, -9.6206557], [-35.7537463, -9.6197222], [-35.7539077, -9.6194089], [-35.7554606, -9.6160189], [-35.7559537, -9.6153281], [-35.7562903, -9.6153438], [-35.7568071, -9.6152851], [-35.7569669, -9.6152278], [-35.7582717, -9.6151515], [-35.7584441, -9.6151142], [-35.7588188, -9.6149203], [-35.759089, -9.614658], [-35.7593402, -9.6143708], [-35.7595894, -9.614219], [-35.7599193, -9.6138228], [-35.7602921, -9.6132494], [-35.7603782, -9.6135106], [-35.7602417, -9.6138105], [-35.7603237, -9.6140201], [-35.7603782, -9.6141593], [-35.7606513, -9.6144377], [-35.7609244, -9.6147161], [-35.761092, -9.615016], [-35.7618119, -9.6155238], [-35.7625443, -9.6155728], [-35.7629353, -9.6152974], [-35.7639593, -9.6150282]]]}}]}