{"type": "FeatureCollection", "features": [{"type": "Feature", "properties": {"place_id": 14713690, "osm_type": "relation", "osm_id": 402830, "place_rank": 20, "category": "boundary", "type": "administrative", "importance": 0.14673040283817804, "addresstype": "suburb", "name": "Cidade Universitária", "display_name": "Cidade Universitária, Maceió, Alagoas, Região Nordeste, Brasil"}, "bbox": [-35.7962119, -9.5655318, -35.7371919, -9.5185332], "geometry": {"type": "Polygon", "coordinates": [[[-35.7962119, -9.531583], [-35.7960123, -9.5325037], [-35.793474, -9.5368833], [-35.7910017, -9.5412707], [-35.7870112, -9.5481554], [-35.7780515, -9.5652377], [-35.7780069, -9.5652218], [-35.7777134, -9.565221], [-35.7776266, -9.5650238], [-35.7772336, -9.5653178], [-35.7768185, -9.5655318], [-35.7762461, -9.565507], [-35.7664478, -9.5604347], [-35.765329, -9.5598555], [-35.7585597, -9.5564901], [-35.7547222, -9.5545822], [-35.7536372, -9.5543434], [-35.752288, -9.5542875], [-35.7511842, -9.5544891], [-35.7500174, -9.5549853], [-35.7489796, -9.555801], [-35.7484675, -9.5564524], [-35.7481703, -9.5568304], [-35.7480217, -9.5570087], [-35.7478498, -9.5572732], [-35.7476107, -9.5577265], [-35.7473828, -9.5582244], [-35.7468761, -9.5594723], [-35.7457381, -9.5621783], [-35.7455305, -9.5618423], [-35.745091, -9.5611248], [-35.7441484, -9.560314], [-35.7432365, -9.5594842], [-35.7414776, -9.5577124], [-35.7402786, -9.5565656], [-35.7401605, -9.5564527], [-35.7371919, -9.5536133], [-35.7374481, -9.5534135], [-35.7487136, -9.5325626], [-35.749615, -9.5322747], [-35.7554383, -9.5304792], [-35.7940405, -9.5185332], [-35.794667, -9.5252273], [-35.7950123, -9.5254741], [-35.7950985, -9.5255097], [-35.7949413, -9.5269698], [-35.795814, -9.5282768], [-35.7960844, -9.5310573], [-35.7962119, -9.531583]]]}}]}