{"type": "FeatureCollection", "features": [{"type": "Feature", "properties": {"place_id": 14846733, "osm_type": "relation", "osm_id": 401580, "place_rank": 20, "category": "boundary", "type": "administrative", "importance": 0.14673040283817804, "addresstype": "suburb", "name": "Clima Bom", "display_name": "Clima Bom, Maceió, Alagoas, Região Nordeste, Brasil"}, "bbox": [-35.8037382, -9.5855666, -35.7742596, -9.564415], "geometry": {"type": "Polygon", "coordinates": [[[-35.8037382, -9.5700134], [-35.8037373, -9.5704933], [-35.803434, -9.5712832], [-35.8032413, -9.572033], [-35.8025519, -9.5726129], [-35.8017306, -9.5736227], [-35.8016495, -9.5740427], [-35.8019536, -9.5754224], [-35.8004226, -9.5777019], [-35.8003111, -9.5781119], [-35.8003719, -9.5784918], [-35.8005646, -9.5790217], [-35.800453, -9.5793116], [-35.7997636, -9.5808613], [-35.7997331, -9.5813412], [-35.7999055, -9.5816611], [-35.7999866, -9.5817711], [-35.7999866, -9.5825509], [-35.7994095, -9.5834897], [-35.7991025, -9.5832385], [-35.7992111, -9.5829325], [-35.799087, -9.5825271], [-35.7980474, -9.5824353], [-35.7980939, -9.5819992], [-35.7946649, -9.5810583], [-35.7938193, -9.5812495], [-35.7936331, -9.581043], [-35.7933693, -9.5807829], [-35.792896, -9.5807217], [-35.7925624, -9.5807064], [-35.7919185, -9.5801403], [-35.7916392, -9.5799108], [-35.7911505, -9.5798649], [-35.7905997, -9.5799644], [-35.7901187, -9.5802627], [-35.7902385, -9.580022], [-35.7902013, -9.5798078], [-35.7901082, -9.5795385], [-35.7898599, -9.5805116], [-35.7893572, -9.5804688], [-35.790313, -9.5815214], [-35.7899158, -9.5821762], [-35.7895558, -9.582372], [-35.7889414, -9.5824332], [-35.7883518, -9.5826291], [-35.7879359, -9.5831003], [-35.7877808, -9.5833329], [-35.787427, -9.5835164], [-35.784752, -9.5819743], [-35.7844045, -9.5819314], [-35.7815185, -9.5825985], [-35.781295, -9.5827086], [-35.7801344, -9.5841529], [-35.7798117, -9.5855666], [-35.7791538, -9.5855299], [-35.7789056, -9.5854319], [-35.7789242, -9.5852851], [-35.7788621, -9.5850709], [-35.7786201, -9.5849179], [-35.7784463, -9.5849179], [-35.7782291, -9.585028], [-35.775312, -9.5835164], [-35.7750328, -9.5832105], [-35.7749459, -9.5827943], [-35.7748776, -9.5820722], [-35.7747907, -9.5817478], [-35.7742596, -9.5811723], [-35.7751773, -9.578828], [-35.7752851, -9.5779159], [-35.7753329, -9.5776573], [-35.7753863, -9.5775131], [-35.7756823, -9.5765075], [-35.7757015, -9.5758403], [-35.7756622, -9.5749931], [-35.7767762, -9.568635], [-35.7768555, -9.568389], [-35.7768988, -9.5676436], [-35.7771684, -9.5671904], [-35.7773975, -9.566857], [-35.7777203, -9.5665632], [-35.7780827, -9.5661002], [-35.777954, -9.565583], [-35.7783521, -9.5657729], [-35.7842154, -9.564953], [-35.7879527, -9.564415], [-35.7893782, -9.5647115], [-35.7895528, -9.5648836], [-35.7931894, -9.5670352], [-35.7941591, -9.5679245], [-35.7972333, -9.5694163], [-35.7980576, -9.5702196], [-35.7985206, -9.5710358], [-35.7988575, -9.5716738], [-35.7990509, -9.5721207], [-35.7992307, -9.572523], [-35.7995094, -9.5728144], [-35.7997196, -9.5729317], [-35.7998658, -9.572998], [-35.8001295, -9.5730312], [-35.8007651, -9.5729955], [-35.8013785, -9.5728407], [-35.8016511, -9.5727078], [-35.8017866, -9.5726173], [-35.8020367, -9.5724461], [-35.8024303, -9.5720667], [-35.8027639, -9.5716949], [-35.8028842, -9.5715249], [-35.8029702, -9.5713789], [-35.8030685, -9.5712002], [-35.8031649, -9.5709447], [-35.8035869, -9.5696628], [-35.8037382, -9.5700134]]]}}]}