{"type": "FeatureCollection", "features": [{"type": "Feature", "properties": {"name": "Farol", "fonte": "overpass_boundary_administrative", "osm_relation_id": 400297, "aviso": "poligono reconstruido a partir da relation administrativa do OSM; um trecho da fronteira (onde a relation do OSM esta incompleta) foi fechado com uma linha reta entre os dois pontos soltos, o resto vem de dados reais do OSM"}, "geometry": {"type": "Polygon", "coordinates": [[[-35.7290047, -9.6600626], [-35.7291102, -9.6599401], [-35.7291989, -9.6598272], [-35.7292587, -9.6597696], [-35.7293813, -9.6597029], [-35.7293284, -9.6590067], [-35.7294166, -9.6586934], [-35.7292872, -9.6582641], [-35.729805, -9.6575564], [-35.729758, -9.6572025], [-35.729958, -9.6567848], [-35.7297109, -9.6562162], [-35.7303406, -9.6561176], [-35.7309349, -9.6554852], [-35.7293637, -9.6559088], [-35.7290577, -9.6558565], [-35.7284515, -9.6558797], [-35.7285241, -9.6555046], [-35.7286613, -9.6547955], [-35.7288903, -9.6539893], [-35.7289121, -9.6532476], [-35.7288957, -9.653176], [-35.7286613, -9.6521511], [-35.7286437, -9.6518727], [-35.7286286, -9.6516351], [-35.7286722, -9.6507643], [-35.7285522, -9.6504106], [-35.7282905, -9.6501731], [-35.7281764, -9.6500574], [-35.727898, -9.6497753], [-35.7277209, -9.6494095], [-35.727669, -9.6493023], [-35.7276421, -9.6490373], [-35.7276254, -9.6488724], [-35.7278064, -9.6482674], [-35.7281363, -9.6478987], [-35.7285193, -9.647468], [-35.7290098, -9.6471823], [-35.7296563, -9.6466218], [-35.7299015, -9.6465559], [-35.7301913, -9.6466438], [-35.7304923, -9.6466328], [-35.7310497, -9.6462811], [-35.7313172, -9.6458745], [-35.7314175, -9.645314], [-35.7314415, -9.6452509], [-35.7315513, -9.6449624], [-35.7318188, -9.6447426], [-35.731848, -9.6447333], [-35.7321978, -9.6446217], [-35.7323762, -9.6444019], [-35.7324542, -9.6441272], [-35.7323093, -9.6438744], [-35.7322416, -9.6436475], [-35.7321978, -9.6435008], [-35.7322201, -9.6433249], [-35.7322758, -9.6431711], [-35.7321198, -9.6428854], [-35.7317275, -9.6426663], [-35.7315224, -9.6424728], [-35.7314422, -9.6422091], [-35.731353, -9.6420684], [-35.73113, -9.6420421], [-35.7307664, -9.64225], [-35.7305442, -9.6423686], [-35.7303926, -9.6423868], [-35.7303853, -9.6422276], [-35.7308992, -9.6414692], [-35.7311476, -9.6414115], [-35.7332063, -9.6422735], [-35.7331255, -9.64265], [-35.734797, -9.6434089], [-35.7351591, -9.6415289], [-35.7359972, -9.6372045], [-35.7407922, -9.6392914], [-35.7416698, -9.6396684], [-35.7415749, -9.6401197], [-35.7415622, -9.6401798], [-35.7423358, -9.640808], [-35.7423849, -9.6408478], [-35.741681, -9.642234], [-35.741645, -9.6423049], [-35.7404855, -9.6417366], [-35.7398772, -9.6429464], [-35.7402981, -9.6431066], [-35.7406285, -9.6430652], [-35.7407899, -9.6430269], [-35.7408808, -9.6429942], [-35.7409888, -9.6429352], [-35.7410144, -9.6427768], [-35.7410034, -9.6426975], [-35.7411393, -9.6429913], [-35.742136, -9.6437131], [-35.7425694, -9.6438868], [-35.7428654, -9.6439498], [-35.7436864, -9.6443044], [-35.7436453, -9.6444423], [-35.7433932, -9.6443866], [-35.7432659, -9.6450232], [-35.7433552, -9.6453752], [-35.7433664, -9.6460793], [-35.7424812, -9.6484547], [-35.7411369, -9.6514878], [-35.7408298, -9.6522088], [-35.7405555, -9.6523206], [-35.7402338, -9.6528396], [-35.7399193, -9.6529009], [-35.7392026, -9.6527099], [-35.7384421, -9.6522088], [-35.7375057, -9.6525085], [-35.737389, -9.6530232], [-35.7371091, -9.6534215], [-35.7393498, -9.6544254], [-35.7392048, -9.6549178], [-35.7390699, -9.6554804], [-35.7386665, -9.6563339], [-35.7382923, -9.6583086], [-35.7382548, -9.6588279], [-35.7381798, -9.6591281], [-35.7379558, -9.6593613], [-35.7378192, -9.6596156], [-35.7375488, -9.660059], [-35.7367064, -9.6613839], [-35.7360337, -9.6625976], [-35.736019, -9.6627273], [-35.7359809, -9.6629115], [-35.7358983, -9.6631093], [-35.7358073, -9.6633716], [-35.7356564, -9.6636189], [-35.7356103, -9.6636889], [-35.7354869, -9.6638762], [-35.7353747, -9.6640138], [-35.7351472, -9.6641426], [-35.7347381, -9.6642399], [-35.7344714, -9.6641859], [-35.7341829, -9.6640186], [-35.7339257, -9.6643889], [-35.7344679, -9.6649065], [-35.7345934, -9.6651035], [-35.7342881, -9.6653848], [-35.7330406, -9.6646232], [-35.7313774, -9.6636077], [-35.729226, -9.6619248], [-35.7291915, -9.6617924], [-35.7296901, -9.661698], [-35.7296179, -9.6608516], [-35.7290047, -9.6600626]]]}}]}