{"type": "FeatureCollection", "features": [{"type": "Feature", "properties": {"place_id": 14854682, "osm_type": "relation", "osm_id": 400623, "place_rank": 20, "category": "boundary", "type": "administrative", "importance": 0.14673040283817804, "addresstype": "suburb", "name": "Feitosa", "display_name": "Feitosa, Maceió, Alagoas, Região Nordeste, Brasil"}, "bbox": [-35.7324542, -9.6478987, -35.7108405, -9.6224976], "geometry": {"type": "Polygon", "coordinates": [[[-35.7324542, -9.6441272], [-35.7323762, -9.6444019], [-35.7321978, -9.6446217], [-35.731848, -9.6447333], [-35.7318188, -9.6447426], [-35.7315513, -9.6449624], [-35.7314415, -9.6452509], [-35.7314175, -9.645314], [-35.7313172, -9.6458745], [-35.7310497, -9.6462811], [-35.7304923, -9.6466328], [-35.7301913, -9.6466438], [-35.7299015, -9.6465559], [-35.7296563, -9.6466218], [-35.7290098, -9.6471823], [-35.7285193, -9.647468], [-35.7281363, -9.6478987], [-35.7273959, -9.6475467], [-35.7269481, -9.6475557], [-35.7267973, -9.6476503], [-35.7258879, -9.6475287], [-35.7255086, -9.6475828], [-35.725207, -9.6476132], [-35.7249786, -9.6475746], [-35.7247386, -9.647478], [-35.7243502, -9.647112], [-35.723897, -9.6462966], [-35.7239967, -9.6459128], [-35.7241217, -9.6456422], [-35.7241045, -9.6451015], [-35.7237961, -9.6449157], [-35.7238532, -9.6445496], [-35.7238246, -9.6443413], [-35.7239674, -9.6441949], [-35.7242473, -9.644116], [-35.724413, -9.6441104], [-35.72487, -9.6438908], [-35.7248186, -9.6436092], [-35.7251099, -9.6434233], [-35.7252584, -9.6432544], [-35.7252641, -9.6429109], [-35.7258868, -9.6428489], [-35.7260181, -9.6427476], [-35.7261095, -9.6425899], [-35.7263266, -9.6426912], [-35.7265437, -9.6426124], [-35.7265722, -9.6424885], [-35.7266693, -9.6424829], [-35.7267722, -9.6425673], [-35.7273605, -9.6423364], [-35.7275776, -9.6423083], [-35.7275947, -9.6421619], [-35.7273777, -9.6414861], [-35.7269721, -9.6410299], [-35.7265094, -9.6407202], [-35.726378, -9.6405006], [-35.7263837, -9.6402528], [-35.726081, -9.6399543], [-35.7254183, -9.639622], [-35.7254012, -9.639408], [-35.7252527, -9.6392222], [-35.7249328, -9.6391997], [-35.72493, -9.6390822], [-35.7249271, -9.6389575], [-35.7245672, -9.6389012], [-35.7243387, -9.6389913], [-35.7243045, -9.6391264], [-35.7242073, -9.639194], [-35.7239617, -9.63898], [-35.7239046, -9.6389012], [-35.7236475, -9.6385408], [-35.7237275, -9.6382817], [-35.7236247, -9.6379269], [-35.7238132, -9.6375721], [-35.7237561, -9.6372962], [-35.7238932, -9.6368851], [-35.7239446, -9.6363613], [-35.7240074, -9.6360178], [-35.7241217, -9.6357756], [-35.7239389, -9.6352068], [-35.723974, -9.6348972], [-35.7240711, -9.634289], [-35.7240311, -9.6341201], [-35.7242482, -9.6333091], [-35.7241682, -9.6331289], [-35.7241911, -9.6328811], [-35.7239455, -9.6326502], [-35.7239512, -9.632408], [-35.7238426, -9.6322391], [-35.7236084, -9.6318899], [-35.7236484, -9.6316365], [-35.7235799, -9.6313718], [-35.7233742, -9.6313661], [-35.7231857, -9.6315576], [-35.7229972, -9.6316196], [-35.7226888, -9.6315801], [-35.7224717, -9.6313887], [-35.7222889, -9.6315238], [-35.7221404, -9.6315182], [-35.7220261, -9.6314563], [-35.7217748, -9.6314394], [-35.7216663, -9.6315407], [-35.7213692, -9.63149], [-35.7211579, -9.6312535], [-35.7211465, -9.6310733], [-35.7210722, -9.6310339], [-35.7208951, -9.6313324], [-35.7205752, -9.6317829], [-35.7200383, -9.6319969], [-35.7196613, -9.6320532], [-35.7189015, -9.6320251], [-35.7181647, -9.6319406], [-35.7173364, -9.6318336], [-35.7168528, -9.6317999], [-35.7167235, -9.6317909], [-35.7166398, -9.631786], [-35.7166398, -9.6326689], [-35.7161978, -9.6326934], [-35.715374, -9.6326748], [-35.7154838, -9.6331251], [-35.7157533, -9.6342924], [-35.7154688, -9.6343134], [-35.7152632, -9.6342627], [-35.714869, -9.634105], [-35.7143835, -9.6340994], [-35.7139836, -9.6341951], [-35.7136866, -9.6343359], [-35.7134924, -9.6345105], [-35.7130125, -9.634702], [-35.7129554, -9.6347865], [-35.7126869, -9.6346063], [-35.7124756, -9.634274], [-35.712567, -9.6341895], [-35.7128355, -9.6340656], [-35.7132296, -9.6337502], [-35.7138065, -9.6334743], [-35.7137837, -9.6332659], [-35.7132296, -9.6333504], [-35.7125498, -9.6333504], [-35.7115902, -9.6333616], [-35.7113388, -9.6329393], [-35.7112189, -9.6329055], [-35.7112646, -9.6324493], [-35.7114125, -9.6321217], [-35.711486, -9.6319324], [-35.7114302, -9.6318805], [-35.7114588, -9.6315482], [-35.7117273, -9.6314806], [-35.7125498, -9.6316158], [-35.7119386, -9.6310076], [-35.7114474, -9.6310245], [-35.7109847, -9.6310301], [-35.7108405, -9.6309404], [-35.7111768, -9.6308007], [-35.7117346, -9.6300527], [-35.7117792, -9.6298987], [-35.7120358, -9.6296787], [-35.7124933, -9.6286558], [-35.7131069, -9.6281168], [-35.7136089, -9.6276438], [-35.7135418, -9.6271124], [-35.713519, -9.6267069], [-35.7134641, -9.6265627], [-35.7134444, -9.6256225], [-35.7134583, -9.6253475], [-35.7138627, -9.6238488], [-35.7139289, -9.6233442], [-35.7148789, -9.6231637], [-35.7161268, -9.6230487], [-35.7160809, -9.6228652], [-35.71604, -9.6225969], [-35.7160967, -9.622579], [-35.7166915, -9.6225506], [-35.7178042, -9.6224976], [-35.7179756, -9.6228214], [-35.7182112, -9.6230889], [-35.718147, -9.6233212], [-35.7181184, -9.6236873], [-35.7182684, -9.6239337], [-35.7186325, -9.6241167], [-35.7189752, -9.6242223], [-35.7191823, -9.6242364], [-35.7193751, -9.6243561], [-35.7196964, -9.6243772], [-35.7202891, -9.6245532], [-35.7206675, -9.6245532], [-35.7212245, -9.6244265], [-35.7215815, -9.6242153], [-35.7219313, -9.6240956], [-35.7221099, -9.6238281], [-35.7222812, -9.6236802], [-35.7224383, -9.6237577], [-35.7227525, -9.6238633], [-35.723595, -9.6242505], [-35.7238449, -9.624342], [-35.7241734, -9.6243772], [-35.7243591, -9.6243631], [-35.7246589, -9.624173], [-35.7256943, -9.6240111], [-35.7262298, -9.6242012], [-35.7268582, -9.6244476], [-35.7269576, -9.62449], [-35.7271224, -9.6245602], [-35.7273009, -9.6247362], [-35.7272794, -9.6249545], [-35.7269724, -9.6250178], [-35.7267296, -9.6251375], [-35.7266368, -9.6255247], [-35.7266297, -9.6258556], [-35.7267154, -9.6261583], [-35.7268724, -9.6263765], [-35.7271866, -9.6265454], [-35.7274294, -9.6266158], [-35.7275222, -9.6267778], [-35.7275508, -9.627172], [-35.7280363, -9.6274184], [-35.7283648, -9.6279393], [-35.7293216, -9.6282561], [-35.7295643, -9.6284814], [-35.7298214, -9.6287489], [-35.7302998, -9.6288615], [-35.7304934, -9.629257], [-35.7301824, -9.6293675], [-35.7298539, -9.6295857], [-35.7296468, -9.6299377], [-35.7295112, -9.6305643], [-35.7294334, -9.6312995], [-35.7293702, -9.6318965], [-35.7293648, -9.6319476], [-35.7294808, -9.6320356], [-35.7295281, -9.6321622], [-35.7295433, -9.6322028], [-35.7294362, -9.6323435], [-35.7295165, -9.6324843], [-35.7294184, -9.6338747], [-35.7291952, -9.6340155], [-35.7291417, -9.634253], [-35.7289364, -9.6343058], [-35.7285794, -9.634605], [-35.7285916, -9.6348625], [-35.7285976, -9.6349899], [-35.7286061, -9.6351682], [-35.7286954, -9.6356258], [-35.7288828, -9.6361889], [-35.7289007, -9.6369193], [-35.72874, -9.6372185], [-35.7285526, -9.6383712], [-35.7284901, -9.638996], [-35.7285883, -9.6394095], [-35.7286763, -9.6395324], [-35.7287721, -9.6396073], [-35.7290696, -9.6397323], [-35.7291172, -9.6399903], [-35.7291059, -9.640191], [-35.7292155, -9.6403647], [-35.7295897, -9.640441], [-35.7301276, -9.6404949], [-35.7303299, -9.6409166], [-35.7302395, -9.6412662], [-35.7301493, -9.6414606], [-35.730102, -9.6416886], [-35.7301063, -9.6419753], [-35.7301326, -9.6421069], [-35.7302127, -9.6422787], [-35.7303276, -9.6423477], [-35.7303926, -9.6423868], [-35.7305442, -9.6423686], [-35.7307664, -9.64225], [-35.73113, -9.6420421], [-35.731353, -9.6420684], [-35.7314422, -9.6422091], [-35.7315224, -9.6424728], [-35.7317275, -9.6426663], [-35.7321198, -9.6428854], [-35.7322758, -9.6431711], [-35.7322201, -9.6433249], [-35.7321978, -9.6435008], [-35.7322416, -9.6436475], [-35.7323093, -9.6438744], [-35.7324542, -9.6441272]]]}}]}