{"type": "FeatureCollection", "features": [{"type": "Feature", "properties": {"place_id": 14840273, "osm_type": "relation", "osm_id": 401365, "place_rank": 20, "category": "boundary", "type": "administrative", "importance": 0.14673040283817804, "addresstype": "suburb", "name": "Fernão Velho", "display_name": "Fernão Velho, Maceió, Alagoas, Região Nordeste, Brasil"}, "bbox": [-35.7998317, -9.6045866, -35.7709734, -9.5798649], "geometry": {"type": "Polygon", "coordinates": [[[-35.7998317, -9.5838352], [-35.7991645, -9.5850974], [-35.7997492, -9.5858434], [-35.7973259, -9.5876936], [-35.7966156, -9.5884873], [-35.7964972, -9.589071], [-35.7953134, -9.5899114], [-35.7943664, -9.5900748], [-35.7933247, -9.5899114], [-35.7917858, -9.5901215], [-35.7853115, -9.5933596], [-35.7825768, -9.5936751], [-35.7825768, -9.5941819], [-35.7812773, -9.5948704], [-35.7808506, -9.5958361], [-35.7795705, -9.5965724], [-35.7790081, -9.5972226], [-35.7780092, -9.5978441], [-35.7773595, -9.5988577], [-35.7766031, -9.5995557], [-35.7763703, -9.6014967], [-35.7764091, -9.6024433], [-35.7754781, -9.6034282], [-35.7754975, -9.603715], [-35.7752038, -9.6045866], [-35.7718958, -9.6032155], [-35.7716693, -9.6028827], [-35.7716572, -9.6019623], [-35.7715966, -9.601305], [-35.771439, -9.6008747], [-35.7712935, -9.5999424], [-35.7709734, -9.599675], [-35.7710578, -9.5994253], [-35.7719465, -9.5999737], [-35.7727757, -9.5987204], [-35.7729842, -9.5983728], [-35.7729991, -9.5981231], [-35.7733666, -9.5968649], [-35.7729247, -9.5965957], [-35.7727807, -9.5963656], [-35.7726814, -9.5961844], [-35.7726665, -9.5956067], [-35.7724828, -9.5954746], [-35.7724629, -9.5952934], [-35.7723735, -9.5951661], [-35.7725275, -9.5949654], [-35.7727509, -9.5948822], [-35.7728254, -9.5945248], [-35.7727856, -9.5940744], [-35.7730041, -9.5935799], [-35.7735056, -9.5928994], [-35.7738879, -9.5925518], [-35.7751391, -9.5917098], [-35.7759137, -9.5914552], [-35.7765691, -9.5913573], [-35.7775969, -9.5913671], [-35.7784856, -9.5915923], [-35.7793992, -9.5913817], [-35.7802483, -9.5910341], [-35.7806058, -9.5904711], [-35.7803873, -9.5897123], [-35.7800894, -9.5892766], [-35.7794638, -9.589115], [-35.7796922, -9.5886548], [-35.7801837, -9.588694], [-35.7814002, -9.5871861], [-35.7813598, -9.5868721], [-35.7807852, -9.5857716], [-35.780553, -9.5853269], [-35.7808633, -9.5843554], [-35.7815538, -9.5833379], [-35.7828649, -9.5827413], [-35.7846803, -9.5825118], [-35.7870853, -9.5839117], [-35.7875663, -9.585281], [-35.7877137, -9.5860918], [-35.7881869, -9.5866426], [-35.7890946, -9.5868492], [-35.7902195, -9.5873235], [-35.7909876, -9.5873999], [-35.7915151, -9.587377], [-35.7924771, -9.5875912], [-35.7935477, -9.5874535], [-35.7938037, -9.5871628], [-35.7938037, -9.5865814], [-35.7932839, -9.5860001], [-35.7888774, -9.584646], [-35.7884429, -9.5841029], [-35.7883886, -9.5834221], [-35.7891334, -9.5830549], [-35.7902583, -9.5829019], [-35.7908479, -9.581961], [-35.7914686, -9.5822058], [-35.7919728, -9.5818692], [-35.7918953, -9.5815249], [-35.791197, -9.5812113], [-35.7909333, -9.5807829], [-35.7906617, -9.5807676], [-35.79046, -9.5804387], [-35.7901187, -9.5802627], [-35.7905997, -9.5799644], [-35.7911505, -9.5798649], [-35.7916392, -9.5799108], [-35.7919185, -9.5801403], [-35.7925624, -9.5807064], [-35.792896, -9.5807217], [-35.7933693, -9.5807829], [-35.7936331, -9.581043], [-35.7938193, -9.5812495], [-35.7946649, -9.5810583], [-35.7980939, -9.5819992], [-35.7980474, -9.5824353], [-35.799087, -9.5825271], [-35.7992111, -9.5829325], [-35.7991025, -9.5832385], [-35.7994095, -9.5834897], [-35.7998317, -9.5838352]]]}}]}