{"type": "FeatureCollection", "features": [{"type": "Feature", "properties": {"place_id": 382341219, "osm_type": "relation", "osm_id": 402875, "place_rank": 20, "category": "boundary", "type": "administrative", "importance": 0.14673040283817804, "addresstype": "suburb", "name": "Garça Torta", "display_name": "Garça Torta, Maceió, Alagoas, Região Nordeste, Brasil"}, "bbox": [-35.6815243, -9.5902163, -35.6589592, -9.5674516], "geometry": {"type": "Polygon", "coordinates": [[[-35.6815243, -9.5674516], [-35.6654016, -9.5902163], [-35.6651821, -9.5894259], [-35.6647754, -9.5884468], [-35.6641102, -9.5880131], [-35.6633806, -9.5876957], [-35.6628227, -9.5871562], [-35.6617499, -9.5857492], [-35.6604302, -9.5843527], [-35.6589592, -9.5826219], [-35.6602556, -9.5819554], [-35.6595154, -9.5812023], [-35.65911, -9.5808547], [-35.6610604, -9.5797252], [-35.6613472, -9.5800218], [-35.6615193, -9.5803159], [-35.6618636, -9.580644], [-35.6622307, -9.5806554], [-35.6625405, -9.5802594], [-35.6628159, -9.579671], [-35.6628618, -9.5792185], [-35.6631257, -9.5784944], [-35.6635273, -9.5781889], [-35.6645599, -9.5782229], [-35.6651336, -9.578551], [-35.6656041, -9.5789243], [-35.666086, -9.5791619], [-35.666717, -9.5791732], [-35.667394, -9.5793429], [-35.6679218, -9.579705], [-35.6681398, -9.5799199], [-35.6680954, -9.579557], [-35.6683186, -9.57875], [-35.6684963, -9.5785817], [-35.6687325, -9.5783716], [-35.6695132, -9.5779563], [-35.6699312, -9.577635], [-35.6701521, -9.5774979], [-35.6707811, -9.5769878], [-35.6710754, -9.5767501], [-35.6717385, -9.576398], [-35.671953, -9.5762438], [-35.6720673, -9.576314], [-35.6729015, -9.575236], [-35.6731998, -9.5747381], [-35.6731184, -9.574687], [-35.6726949, -9.5744214], [-35.6720299, -9.5734267], [-35.6740947, -9.573437], [-35.6747488, -9.5738104], [-35.6759306, -9.5740593], [-35.6768802, -9.5738382], [-35.677009, -9.5736173], [-35.6770887, -9.5735174], [-35.67726, -9.5731976], [-35.6779385, -9.5717965], [-35.6782254, -9.571491], [-35.6786039, -9.5712916], [-35.678765, -9.5711218], [-35.678814, -9.5710453], [-35.678856, -9.5709736], [-35.6788872, -9.5708782], [-35.6790465, -9.5703859], [-35.6791318, -9.5702577], [-35.6797289, -9.5698104], [-35.6799267, -9.5694703], [-35.6800527, -9.5692063], [-35.6801989, -9.5689227], [-35.6804398, -9.5684588], [-35.6804304, -9.5682328], [-35.6805316, -9.5681533], [-35.6811397, -9.5678026], [-35.6815243, -9.5674516]]]}}]}