{"type": "FeatureCollection", "features": [{"type": "Feature", "properties": {"place_id": 14860205, "osm_type": "relation", "osm_id": 401795, "place_rank": 20, "category": "boundary", "type": "administrative", "importance": 0.14673040283817804, "addresstype": "suburb", "name": "Gruta de Lourdes", "display_name": "Gruta de Lourdes, Maceió, Alagoas, Região Nordeste, Brasil"}, "bbox": [-35.7448348, -9.6313817, -35.7266297, -9.6044251], "geometry": {"type": "Polygon", "coordinates": [[[-35.7448348, -9.6213041], [-35.7443939, -9.6224954], [-35.7440999, -9.6222371], [-35.7435095, -9.6221106], [-35.7433555, -9.6222371], [-35.7431205, -9.6239561], [-35.7403211, -9.6220199], [-35.7388221, -9.6221069], [-35.7385934, -9.6240824], [-35.7381031, -9.6267125], [-35.7371768, -9.6313817], [-35.7351635, -9.6306368], [-35.7340537, -9.6301533], [-35.733511, -9.6298224], [-35.7327898, -9.629569], [-35.7309833, -9.6290832], [-35.7304934, -9.629257], [-35.7302998, -9.6288615], [-35.7298214, -9.6287489], [-35.7295643, -9.6284814], [-35.7293216, -9.6282561], [-35.7283648, -9.6279393], [-35.7280363, -9.6274184], [-35.7275508, -9.627172], [-35.7275222, -9.6267778], [-35.7274294, -9.6266158], [-35.7271866, -9.6265454], [-35.7268724, -9.6263765], [-35.7267154, -9.6261583], [-35.7266297, -9.6258556], [-35.7266368, -9.6255247], [-35.7267296, -9.6251375], [-35.7269724, -9.6250178], [-35.7272794, -9.6249545], [-35.7273009, -9.6247362], [-35.7271224, -9.6245602], [-35.7269576, -9.62449], [-35.7272324, -9.6238804], [-35.7274416, -9.6236505], [-35.7275548, -9.6234902], [-35.7276721, -9.6234276], [-35.7277649, -9.623206], [-35.7276916, -9.6229218], [-35.7279798, -9.6224064], [-35.7281313, -9.6222427], [-35.7282583, -9.6221608], [-35.7283023, -9.6217225], [-35.7285026, -9.621472], [-35.7286687, -9.6210096], [-35.7288788, -9.6206579], [-35.728913, -9.6203593], [-35.7288739, -9.6201425], [-35.7288641, -9.6197572], [-35.7289032, -9.6195115], [-35.72904, -9.6192032], [-35.7290058, -9.6189913], [-35.7290693, -9.618842], [-35.7292164, -9.6187141], [-35.7291496, -9.6183566], [-35.7292164, -9.6180743], [-35.7292736, -9.6176792], [-35.7292832, -9.6175287], [-35.7291985, -9.6172469], [-35.7294805, -9.6170708], [-35.7295581, -9.6167904], [-35.7297994, -9.6167309], [-35.7301355, -9.6166204], [-35.7303854, -9.6163995], [-35.7303682, -9.6159831], [-35.7307991, -9.6156432], [-35.7312904, -9.6153628], [-35.7318678, -9.6152014], [-35.7321149, -9.6150942], [-35.7322137, -9.6150475], [-35.7324711, -9.614904], [-35.7326003, -9.6142582], [-35.7323246, -9.613468], [-35.7318419, -9.6132385], [-35.7316523, -9.6130431], [-35.7312817, -9.6127712], [-35.7312473, -9.6125418], [-35.7316523, -9.6124483], [-35.7316868, -9.6122444], [-35.7315317, -9.6121339], [-35.731592, -9.6119555], [-35.7317988, -9.6111312], [-35.7315144, -9.6108168], [-35.7315661, -9.6105619], [-35.731299, -9.6101625], [-35.731299, -9.6096612], [-35.7311008, -9.6094742], [-35.7311094, -9.6091768], [-35.7310577, -9.608769], [-35.7312904, -9.608531], [-35.7315317, -9.6083441], [-35.7316006, -9.6080977], [-35.7314196, -9.6079702], [-35.7316437, -9.6077918], [-35.7315748, -9.6075708], [-35.7317385, -9.6073669], [-35.7322728, -9.606976], [-35.7323073, -9.6067211], [-35.7322122, -9.6064433], [-35.7323523, -9.606029], [-35.7322445, -9.6056891], [-35.7324169, -9.6056572], [-35.7324277, -9.6054448], [-35.7327293, -9.6054979], [-35.7328693, -9.6053173], [-35.7328801, -9.6049668], [-35.7327724, -9.6046163], [-35.7331494, -9.6044251], [-35.7333432, -9.6045814], [-35.7401766, -9.6102757], [-35.7418378, -9.6114659], [-35.7419648, -9.6115188], [-35.7426033, -9.6116521], [-35.7431163, -9.6122996], [-35.7432459, -9.6132384], [-35.7436836, -9.6145006], [-35.7436466, -9.6163598], [-35.7431439, -9.6168449], [-35.7426786, -9.6174494], [-35.7421897, -9.618041], [-35.7416558, -9.6185221], [-35.7414576, -9.6187722], [-35.7416408, -9.618974], [-35.7415007, -9.6193883], [-35.7421902, -9.6205141], [-35.7430951, -9.6207053], [-35.7439138, -9.6208965], [-35.7442909, -9.6212364], [-35.7446356, -9.6211727], [-35.7448348, -9.6213041]]]}}]}