{"type": "FeatureCollection", "features": [{"type": "Feature", "properties": {"place_id": 382341218, "osm_type": "relation", "osm_id": 402314, "place_rank": 20, "category": "boundary", "type": "administrative", "importance": 0.14669536659800103, "addresstype": "suburb", "name": "Guaxuma", "display_name": "Guaxuma, Maceió, Alagoas, Região Nordeste, 57038-760, Brasil"}, "bbox": [-35.6926251, -9.602379, -35.6654016, -9.5800114], "geometry": {"type": "Polygon", "coordinates": [[[-35.6926251, -9.5800114], [-35.6923858, -9.5806043], [-35.6908745, -9.5824511], [-35.6894619, -9.5836657], [-35.6889458, -9.5849553], [-35.6883767, -9.5860733], [-35.6868997, -9.5879458], [-35.6868528, -9.5887338], [-35.6872011, -9.5892833], [-35.6869901, -9.5902047], [-35.6853925, -9.5927014], [-35.6857844, -9.5939795], [-35.6868394, -9.5946333], [-35.6867737, -9.5950325], [-35.6861762, -9.5954061], [-35.6827399, -9.5953467], [-35.6812917, -9.596356], [-35.6823781, -9.5977839], [-35.6826193, -9.5988538], [-35.6814437, -9.5993888], [-35.6799968, -9.5998644], [-35.6793638, -9.6016774], [-35.6783527, -9.6023684], [-35.6779933, -9.602379], [-35.6767058, -9.6003056], [-35.675751, -9.5989092], [-35.6747425, -9.5979149], [-35.6736374, -9.5967512], [-35.6721139, -9.5956616], [-35.670569, -9.5947412], [-35.6702793, -9.5945614], [-35.6700325, -9.5941488], [-35.6697358, -9.5936967], [-35.6695604, -9.5934295], [-35.6689596, -9.5929323], [-35.6680906, -9.5923928], [-35.6666207, -9.5917792], [-35.666213, -9.5915993], [-35.6659019, -9.5913666], [-35.6654016, -9.5902163], [-35.6926251, -9.5800114]]]}}]}