{"type": "FeatureCollection", "features": [{"type": "Feature", "properties": {"place_id": 416384083, "osm_type": "relation", "osm_id": 5543428, "place_rank": 20, "category": "boundary", "type": "administrative", "importance": 0.14673040283817804, "addresstype": "suburb", "name": "Ipioca", "display_name": "Ipioca, Maceió, Alagoas, Região Nordeste, 57039-750, Brasil"}, "bbox": [-35.629215, -9.5488449, -35.5583254, -9.4719771], "geometry": {"type": "Polygon", "coordinates": [[[-35.629215, -9.5325037], [-35.6248538, -9.5345221], [-35.6200722, -9.5329704], [-35.6179906, -9.5322949], [-35.6160165, -9.5324324], [-35.6157268, -9.5331519], [-35.615509, -9.5345962], [-35.6147365, -9.5356542], [-35.6145756, -9.5364795], [-35.6149404, -9.5372625], [-35.6158952, -9.5381301], [-35.6163673, -9.5391776], [-35.6169681, -9.539569], [-35.617687, -9.5393892], [-35.6184165, -9.538712], [-35.6190281, -9.5387332], [-35.6193059, -9.5392246], [-35.6196763, -9.5400075], [-35.6197465, -9.5405119], [-35.6196239, -9.5410401], [-35.618781, -9.5418727], [-35.6186046, -9.5423656], [-35.6184684, -9.5428861], [-35.6182122, -9.5446284], [-35.6179587, -9.5449276], [-35.6176757, -9.5451827], [-35.6175287, -9.5456004], [-35.6175491, -9.5462363], [-35.6178231, -9.5467105], [-35.6184112, -9.5470783], [-35.6188929, -9.5473421], [-35.6195397, -9.5473969], [-35.6202444, -9.5473021], [-35.6205095, -9.5473218], [-35.6207178, -9.5474251], [-35.6208548, -9.5475948], [-35.6209336, -9.5477813], [-35.6209115, -9.5479875], [-35.6208191, -9.5482809], [-35.6206659, -9.5486047], [-35.6202761, -9.5487161], [-35.6199391, -9.5487931], [-35.6198832, -9.5488449], [-35.6189364, -9.5485963], [-35.6183115, -9.5483926], [-35.6178528, -9.5482074], [-35.6171903, -9.5478398], [-35.6167048, -9.5474827], [-35.6165707, -9.5472658], [-35.6165466, -9.546914], [-35.6166136, -9.5465146], [-35.6163669, -9.545774], [-35.6161979, -9.5456338], [-35.6160906, -9.5453217], [-35.6159512, -9.544999], [-35.615868, -9.5448403], [-35.6157178, -9.5446022], [-35.6155032, -9.5442266], [-35.6153449, -9.5439806], [-35.6151572, -9.5435759], [-35.6149474, -9.5431282], [-35.6148207, -9.5427458], [-35.614779, -9.5423671], [-35.6147816, -9.5418428], [-35.6147258, -9.5414518], [-35.6143036, -9.5403277], [-35.6134045, -9.5388422], [-35.6120404, -9.5371958], [-35.6091903, -9.5346138], [-35.6071032, -9.5330844], [-35.6050173, -9.5314501], [-35.6024247, -9.5303701], [-35.6007754, -9.5298937], [-35.5992001, -9.5296474], [-35.5984207, -9.529557], [-35.5972922, -9.5296051], [-35.5964774, -9.5296223], [-35.5954053, -9.5297943], [-35.5934393, -9.5305433], [-35.5932462, -9.5307126], [-35.5930209, -9.5307496], [-35.5926454, -9.530538], [-35.5924094, -9.5301941], [-35.5917978, -9.5294535], [-35.5914813, -9.5289721], [-35.5912024, -9.5276124], [-35.5911219, -9.5263586], [-35.5909234, -9.5236657], [-35.5908966, -9.5231155], [-35.5908213, -9.5215079], [-35.5908568, -9.5202148], [-35.5908383, -9.5201024], [-35.5906196, -9.5193819], [-35.5902539, -9.5178636], [-35.5899616, -9.5166498], [-35.5892939, -9.5153152], [-35.5883854, -9.5139052], [-35.5878101, -9.5127575], [-35.5872441, -9.5114909], [-35.5865331, -9.5106018], [-35.5856818, -9.5100844], [-35.5844115, -9.5094447], [-35.5831457, -9.5082554], [-35.5829945, -9.5079681], [-35.5822397, -9.5070566], [-35.5819783, -9.5067333], [-35.581423, -9.5061485], [-35.5811552, -9.5057916], [-35.5808755, -9.505166], [-35.5804581, -9.5043947], [-35.5800523, -9.5038183], [-35.5796113, -9.5033143], [-35.5790927, -9.5027215], [-35.578919, -9.502523], [-35.578124, -9.5020674], [-35.5765911, -9.5013294], [-35.5759371, -9.5010615], [-35.5749336, -9.5005156], [-35.5741773, -9.5001042], [-35.5738461, -9.4997131], [-35.5734143, -9.4991503], [-35.5730543, -9.4987452], [-35.5728187, -9.4984685], [-35.5723522, -9.497629], [-35.5721453, -9.4973843], [-35.5719282, -9.4971307], [-35.5715493, -9.496668], [-35.5712053, -9.4964038], [-35.5709457, -9.4962474], [-35.5701238, -9.4958005], [-35.5693074, -9.4954668], [-35.5681565, -9.4949646], [-35.5677088, -9.4947373], [-35.567397, -9.4945027], [-35.5668109, -9.4940616], [-35.5663153, -9.4936888], [-35.5658541, -9.4933417], [-35.5648937, -9.4926476], [-35.5636478, -9.4917472], [-35.5628524, -9.4910694], [-35.5625192, -9.4907854], [-35.5622605, -9.490565], [-35.5617613, -9.4901365], [-35.5595937, -9.4888376], [-35.5585442, -9.4878955], [-35.5583254, -9.4876374], [-35.5588176, -9.4868308], [-35.5590232, -9.485344], [-35.5590834, -9.4852269], [-35.5592583, -9.4851782], [-35.5597122, -9.48524], [-35.5601267, -9.4852886], [-35.5603762, -9.4852305], [-35.5607361, -9.4845101], [-35.5608449, -9.4838288], [-35.5612114, -9.4828062], [-35.5616795, -9.4809694], [-35.5623266, -9.479915], [-35.5624901, -9.4796894], [-35.5628605, -9.4796087], [-35.5656717, -9.4791896], [-35.5666087, -9.4791036], [-35.567001, -9.4791842], [-35.5673824, -9.4790929], [-35.5679272, -9.4788779], [-35.5686245, -9.4785931], [-35.5689786, -9.4781256], [-35.5693055, -9.477685], [-35.5698067, -9.4773035], [-35.5704605, -9.4768951], [-35.5722528, -9.4758526], [-35.5738491, -9.4749498], [-35.5762517, -9.4736064], [-35.5786924, -9.4721716], [-35.5789978, -9.4719771], [-35.5812687, -9.4750293], [-35.5827088, -9.4769831], [-35.5842117, -9.4789928], [-35.5847022, -9.4794952], [-35.5866234, -9.4813466], [-35.5893274, -9.4839269], [-35.5909498, -9.4859117], [-35.5923333, -9.4877228], [-35.5957039, -9.4931065], [-35.597603, -9.4957611], [-35.598911, -9.4973365], [-35.601527, -9.5036627], [-35.6021433, -9.5050768], [-35.6027847, -9.5059327], [-35.6074005, -9.5103238], [-35.6093876, -9.5128046], [-35.6118779, -9.516687], [-35.6127708, -9.5176669], [-35.6136386, -9.5179646], [-35.616154, -9.5183119], [-35.6215369, -9.520433], [-35.6234738, -9.5211772], [-35.6241529, -9.5217106], [-35.6288127, -9.5318628], [-35.629215, -9.5325037]]]}}]}