{"type": "FeatureCollection", "features": [{"type": "Feature", "properties": {"place_id": 14960576, "osm_type": "relation", "osm_id": 402032, "place_rank": 20, "category": "boundary", "type": "administrative", "importance": 0.14673040283817804, "addresstype": "suburb", "name": "Jacarecica", "display_name": "Jacarecica, Maceió, Alagoas, Região Nordeste, 57038-640, Brasil"}, "bbox": [-35.7109138, -9.6259709, -35.6779933, -9.5774239], "geometry": {"type": "Polygon", "coordinates": [[[-35.7109138, -9.5943874], [-35.7107394, -9.5949138], [-35.7102307, -9.5955474], [-35.7096148, -9.5957322], [-35.7094006, -9.5952042], [-35.7089722, -9.5948346], [-35.7079815, -9.5950458], [-35.707446, -9.5957322], [-35.7068837, -9.5950194], [-35.7062946, -9.5944386], [-35.7050361, -9.5943329], [-35.7043935, -9.5949138], [-35.7039383, -9.5954682], [-35.7036705, -9.5964715], [-35.7028404, -9.5966035], [-35.7024656, -9.5974219], [-35.7025191, -9.598346], [-35.7031082, -9.5994548], [-35.7034295, -9.6003261], [-35.7024924, -9.602227], [-35.7011, -9.6028606], [-35.7009929, -9.6038902], [-35.7000289, -9.6044182], [-35.6999754, -9.6051575], [-35.6994399, -9.6053423], [-35.6990382, -9.6059231], [-35.6984502, -9.6068007], [-35.6976498, -9.607024], [-35.6971061, -9.6072176], [-35.6964568, -9.6074112], [-35.6958829, -9.6074856], [-35.6948409, -9.6071432], [-35.6942066, -9.6070687], [-35.6931797, -9.6072623], [-35.692621, -9.6079025], [-35.6923884, -9.6087066], [-35.6916998, -9.6107226], [-35.6925372, -9.610999], [-35.6928997, -9.6116065], [-35.6931655, -9.6120234], [-35.6933588, -9.6120234], [-35.6940716, -9.6128929], [-35.6940232, -9.613286], [-35.6954126, -9.6149298], [-35.6958596, -9.615299], [-35.6962583, -9.6153586], [-35.6966207, -9.6155373], [-35.697104, -9.6156207], [-35.6973818, -9.6153705], [-35.6977564, -9.6154301], [-35.6984099, -9.615705], [-35.6986624, -9.6158112], [-35.6991983, -9.6160283], [-35.700188, -9.6158637], [-35.7006272, -9.6156868], [-35.7010725, -9.6157173], [-35.7016354, -9.6155953], [-35.7017715, -9.6157234], [-35.7020416, -9.6171985], [-35.7015499, -9.6172168], [-35.7012107, -9.6174429], [-35.7005921, -9.6177259], [-35.6997707, -9.6180772], [-35.6994094, -9.6180577], [-35.6989839, -9.6181552], [-35.6986523, -9.6184724], [-35.698556, -9.6187629], [-35.6998699, -9.6189565], [-35.7003229, -9.6193287], [-35.7009874, -9.6194776], [-35.7015008, -9.6197456], [-35.7018633, -9.6201476], [-35.7023465, -9.6204305], [-35.7032979, -9.620639], [-35.7037812, -9.620773], [-35.7040983, -9.6212494], [-35.7040983, -9.6217556], [-35.7040913, -9.6223294], [-35.7038583, -9.6230488], [-35.7027367, -9.6244313], [-35.7025314, -9.6247886], [-35.7025555, -9.6250983], [-35.7024105, -9.6253246], [-35.7020964, -9.625539], [-35.7014254, -9.6255678], [-35.7012835, -9.6255772], [-35.6972107, -9.6259223], [-35.6968745, -9.6259709], [-35.696852, -9.6259273], [-35.6968288, -9.6258534], [-35.6958328, -9.6237257], [-35.6947134, -9.6237], [-35.6927785, -9.6236696], [-35.692429, -9.6228478], [-35.6912434, -9.6208274], [-35.6898782, -9.6184739], [-35.6878746, -9.6155279], [-35.6864906, -9.6135286], [-35.6849241, -9.6114976], [-35.6833792, -9.6094665], [-35.6821132, -9.6083875], [-35.6809545, -9.607499], [-35.6804824, -9.6070124], [-35.6798172, -9.6057218], [-35.6794095, -9.6047697], [-35.6784922, -9.6038124], [-35.6779933, -9.602379], [-35.6783527, -9.6023684], [-35.6793638, -9.6016774], [-35.6799968, -9.5998644], [-35.6814437, -9.5993888], [-35.6826193, -9.5988538], [-35.6823781, -9.5977839], [-35.6812917, -9.596356], [-35.6827399, -9.5953467], [-35.6861762, -9.5954061], [-35.6867737, -9.5950325], [-35.6868394, -9.5946333], [-35.6857844, -9.5939795], [-35.6853925, -9.5927014], [-35.6869901, -9.5902047], [-35.6872011, -9.5892833], [-35.6868528, -9.5887338], [-35.6868997, -9.5879458], [-35.6883767, -9.5860733], [-35.6889458, -9.5849553], [-35.6894619, -9.5836657], [-35.6908745, -9.5824511], [-35.6923858, -9.5806043], [-35.6926251, -9.5800114], [-35.6929887, -9.5789695], [-35.6942849, -9.5778994], [-35.6959729, -9.5776617], [-35.6973897, -9.5782561], [-35.6985653, -9.5787912], [-35.6998012, -9.5787912], [-35.7006753, -9.5779292], [-35.7019715, -9.5774239], [-35.705016, -9.5805448], [-35.705227, -9.5823579], [-35.7075481, -9.5843494], [-35.7075481, -9.5882133], [-35.708405, -9.5898455], [-35.7092412, -9.5910756], [-35.7097485, -9.5920354], [-35.7098993, -9.5931168], [-35.7100501, -9.593671], [-35.7109138, -9.5943874]]]}}]}