{"type": "FeatureCollection", "features": [{"type": "Feature", "properties": {"place_id": 14848168, "osm_type": "relation", "osm_id": 400602, "place_rank": 20, "category": "boundary", "type": "administrative", "importance": 0.14673040283817804, "addresstype": "suburb", "name": "Jacintinho", "display_name": "Jacintinho, Maceió, Alagoas, Região Nordeste, Brasil"}, "bbox": [-35.7289121, -9.6588502, -35.7027328, -9.6309404], "geometry": {"type": "Polygon", "coordinates": [[[-35.7289121, -9.6532476], [-35.7288903, -9.6539893], [-35.7286613, -9.6547955], [-35.7285241, -9.6555046], [-35.7284515, -9.6558797], [-35.7284515, -9.655911], [-35.7284515, -9.6561524], [-35.7286578, -9.6568329], [-35.7287399, -9.6571039], [-35.728734, -9.6574868], [-35.7270188, -9.6573278], [-35.7268767, -9.658835], [-35.7260832, -9.6588502], [-35.7261375, -9.6585859], [-35.7261194, -9.6583631], [-35.7256465, -9.6575533], [-35.7255216, -9.6577061], [-35.7255096, -9.657908], [-35.7255361, -9.6581267], [-35.7254734, -9.658236], [-35.7252107, -9.6578106], [-35.7245894, -9.6569854], [-35.724003, -9.6556604], [-35.7234859, -9.6555194], [-35.7232218, -9.654771], [-35.7227927, -9.6547168], [-35.7222316, -9.6539141], [-35.7225066, -9.6537514], [-35.7224186, -9.6536321], [-35.7220335, -9.6535995], [-35.7211203, -9.6519834], [-35.7202181, -9.651799], [-35.7205372, -9.6514085], [-35.7201741, -9.6508987], [-35.7191068, -9.6497055], [-35.719921, -9.6495645], [-35.719885, -9.6494263], [-35.719572, -9.6491002], [-35.7193554, -9.6489293], [-35.7192388, -9.6488671], [-35.718934, -9.6487828], [-35.7186104, -9.6488357], [-35.7185127, -9.6478615], [-35.7180124, -9.6471485], [-35.7167428, -9.645339], [-35.715806, -9.6441193], [-35.715325, -9.6443387], [-35.7149417, -9.6444703], [-35.7148928, -9.6441627], [-35.7146097, -9.6440557], [-35.7141426, -9.6441753], [-35.7142364, -9.6439107], [-35.7134268, -9.6433124], [-35.7130738, -9.643347], [-35.7126725, -9.6429999], [-35.7113909, -9.642861], [-35.7111515, -9.6420002], [-35.7109332, -9.6418058], [-35.7105881, -9.6419724], [-35.7098779, -9.641348], [-35.7098065, -9.6412852], [-35.7094051, -9.6413268], [-35.709015, -9.6412213], [-35.7087953, -9.6411213], [-35.7086432, -9.6412713], [-35.7078433, -9.6407548], [-35.7078827, -9.6406381], [-35.7077655, -9.640579], [-35.7082093, -9.6403616], [-35.7078302, -9.6396572], [-35.7077469, -9.6392672], [-35.7075982, -9.6387376], [-35.706366, -9.6389006], [-35.7060241, -9.6389316], [-35.7060031, -9.6375428], [-35.7059732, -9.6373181], [-35.7055514, -9.6365708], [-35.7053321, -9.6362911], [-35.7048918, -9.6358867], [-35.7032922, -9.6359008], [-35.7030455, -9.6359925], [-35.7027328, -9.6355294], [-35.7036224, -9.6350463], [-35.7041782, -9.6348669], [-35.7047342, -9.6347786], [-35.7066101, -9.6337797], [-35.706692, -9.633647], [-35.7068266, -9.6335519], [-35.7069231, -9.6334279], [-35.7070839, -9.6333616], [-35.7072331, -9.633203], [-35.7072594, -9.6331338], [-35.7073589, -9.6330703], [-35.7074642, -9.6329781], [-35.7082402, -9.63299], [-35.7083594, -9.6328791], [-35.7085216, -9.6328628], [-35.7096608, -9.6328481], [-35.7101751, -9.6328544], [-35.7103866, -9.6328574], [-35.7101698, -9.6325553], [-35.7101478, -9.632261], [-35.7103164, -9.6321734], [-35.7106876, -9.6311371], [-35.7108405, -9.6309404], [-35.7109847, -9.6310301], [-35.7114474, -9.6310245], [-35.7119386, -9.6310076], [-35.7125498, -9.6316158], [-35.7117273, -9.6314806], [-35.7114588, -9.6315482], [-35.7114302, -9.6318805], [-35.711486, -9.6319324], [-35.7114125, -9.6321217], [-35.7112646, -9.6324493], [-35.7112189, -9.6329055], [-35.7113388, -9.6329393], [-35.7115902, -9.6333616], [-35.7125498, -9.6333504], [-35.7132296, -9.6333504], [-35.7137837, -9.6332659], [-35.7138065, -9.6334743], [-35.7132296, -9.6337502], [-35.7128355, -9.6340656], [-35.712567, -9.6341895], [-35.7124756, -9.634274], [-35.7126869, -9.6346063], [-35.7129554, -9.6347865], [-35.7130125, -9.634702], [-35.7134924, -9.6345105], [-35.7136866, -9.6343359], [-35.7139836, -9.6341951], [-35.7143835, -9.6340994], [-35.714869, -9.634105], [-35.7152632, -9.6342627], [-35.7154688, -9.6343134], [-35.7157533, -9.6342924], [-35.7154838, -9.6331251], [-35.715374, -9.6326748], [-35.7161978, -9.6326934], [-35.7166398, -9.6326689], [-35.7166398, -9.631786], [-35.7167235, -9.6317909], [-35.7168528, -9.6317999], [-35.7173364, -9.6318336], [-35.7181647, -9.6319406], [-35.7189015, -9.6320251], [-35.7196613, -9.6320532], [-35.7200383, -9.6319969], [-35.7205752, -9.6317829], [-35.7208951, -9.6313324], [-35.7210722, -9.6310339], [-35.7211465, -9.6310733], [-35.7211579, -9.6312535], [-35.7213692, -9.63149], [-35.7216663, -9.6315407], [-35.7217748, -9.6314394], [-35.7220261, -9.6314563], [-35.7221404, -9.6315182], [-35.7222889, -9.6315238], [-35.7224717, -9.6313887], [-35.7226888, -9.6315801], [-35.7229972, -9.6316196], [-35.7231857, -9.6315576], [-35.7233742, -9.6313661], [-35.7235799, -9.6313718], [-35.7236484, -9.6316365], [-35.7236084, -9.6318899], [-35.7238426, -9.6322391], [-35.7239512, -9.632408], [-35.7239455, -9.6326502], [-35.7241911, -9.6328811], [-35.7241682, -9.6331289], [-35.7242482, -9.6333091], [-35.7240311, -9.6341201], [-35.7240711, -9.634289], [-35.723974, -9.6348972], [-35.7239389, -9.6352068], [-35.7241217, -9.6357756], [-35.7240074, -9.6360178], [-35.7239446, -9.6363613], [-35.7238932, -9.6368851], [-35.7237561, -9.6372962], [-35.7238132, -9.6375721], [-35.7236247, -9.6379269], [-35.7237275, -9.6382817], [-35.7236475, -9.6385408], [-35.7239046, -9.6389012], [-35.7239617, -9.63898], [-35.7242073, -9.639194], [-35.7243045, -9.6391264], [-35.7243387, -9.6389913], [-35.7245672, -9.6389012], [-35.7249271, -9.6389575], [-35.72493, -9.6390822], [-35.7249328, -9.6391997], [-35.7252527, -9.6392222], [-35.7254012, -9.639408], [-35.7254183, -9.639622], [-35.726081, -9.6399543], [-35.7263837, -9.6402528], [-35.726378, -9.6405006], [-35.7265094, -9.6407202], [-35.7269721, -9.6410299], [-35.7273777, -9.6414861], [-35.7275947, -9.6421619], [-35.7275776, -9.6423083], [-35.7273605, -9.6423364], [-35.7267722, -9.6425673], [-35.7266693, -9.6424829], [-35.7265722, -9.6424885], [-35.7265437, -9.6426124], [-35.7263266, -9.6426912], [-35.7261095, -9.6425899], [-35.7260181, -9.6427476], [-35.7258868, -9.6428489], [-35.7252641, -9.6429109], [-35.7252584, -9.6432544], [-35.7251099, -9.6434233], [-35.7248186, -9.6436092], [-35.72487, -9.6438908], [-35.724413, -9.6441104], [-35.7242473, -9.644116], [-35.7239674, -9.6441949], [-35.7238246, -9.6443413], [-35.7238532, -9.6445496], [-35.7237961, -9.6449157], [-35.7241045, -9.6451015], [-35.7241217, -9.6456422], [-35.7239967, -9.6459128], [-35.723897, -9.6462966], [-35.7243502, -9.647112], [-35.7247386, -9.647478], [-35.7249786, -9.6475746], [-35.725207, -9.6476132], [-35.7255086, -9.6475828], [-35.7258879, -9.6475287], [-35.7267973, -9.6476503], [-35.7269481, -9.6475557], [-35.7273959, -9.6475467], [-35.7281363, -9.6478987], [-35.7278064, -9.6482674], [-35.7276254, -9.6488724], [-35.7276421, -9.6490373], [-35.727669, -9.6493023], [-35.7277209, -9.6494095], [-35.727898, -9.6497753], [-35.7281764, -9.6500574], [-35.7282905, -9.6501731], [-35.7285522, -9.6504106], [-35.7286722, -9.6507643], [-35.7286286, -9.6516351], [-35.7286437, -9.6518727], [-35.7286613, -9.6521511], [-35.7288957, -9.653176], [-35.7289121, -9.6532476]]]}}]}