{"type": "FeatureCollection", "features": [{"type": "Feature", "properties": {"name": "Jaraguá", "fonte": "overpass_boundary_administrative", "osm_relation_id": 400193, "aviso": "poligono reconstruido a partir da relation administrativa do OSM; um trecho da fronteira (onde a relation do OSM esta incompleta) foi fechado com uma linha reta entre os dois pontos soltos, o resto vem de dados reais do OSM"}, "geometry": {"type": "Polygon", "coordinates": [[[-35.731357, -9.6710233], [-35.7283995, -9.6716809], [-35.7266396, -9.6727461], [-35.72411, -9.6742018], [-35.7226807, -9.6752765], [-35.7249118, -9.6794598], [-35.7249346, -9.6795015], [-35.7249266, -9.6795582], [-35.7229221, -9.6806352], [-35.7244337, -9.6834015], [-35.7284617, -9.6817091], [-35.7288154, -9.6825445], [-35.7294649, -9.6822797], [-35.7294998, -9.682345], [-35.7295629, -9.6823243], [-35.7296281, -9.6823889], [-35.729625, -9.6824799], [-35.7295917, -9.6825463], [-35.7260892, -9.6839833], [-35.7252613, -9.6843072], [-35.7246316, -9.6845535], [-35.7240468, -9.684617], [-35.7235533, -9.6845588], [-35.7232471, -9.6843985], [-35.7229471, -9.6842415], [-35.72246, -9.6837236], [-35.7217979, -9.682474], [-35.7208662, -9.6807697], [-35.7202311, -9.6795155], [-35.7200824, -9.6792316], [-35.7191996, -9.6776863], [-35.7184755, -9.6764952], [-35.7180926, -9.6761967], [-35.7166942, -9.6744347], [-35.7176363, -9.6742139], [-35.7183238, -9.6740535], [-35.7190277, -9.674012], [-35.7199353, -9.6741376], [-35.7200725, -9.674135], [-35.7195458, -9.673772], [-35.7189759, -9.6733181], [-35.7182093, -9.6722507], [-35.718417, -9.6721118], [-35.7196884, -9.6697858], [-35.7196836, -9.6683095], [-35.7202599, -9.6685894], [-35.7203172, -9.6685185], [-35.7206603, -9.6680128], [-35.7209983, -9.6677151], [-35.7216384, -9.6673833], [-35.722074, -9.6672965], [-35.7227272, -9.6672667], [-35.7231596, -9.6672469], [-35.7278567, -9.6670284], [-35.731357, -9.6710233]]]}}]}