{"type": "FeatureCollection", "features": [{"type": "Feature", "properties": {"place_id": 14831698, "osm_type": "relation", "osm_id": 402034, "place_rank": 20, "category": "boundary", "type": "administrative", "importance": 0.14673040283817804, "addresstype": "suburb", "name": "Jardim Petrópolis II", "display_name": "Jardim Petrópolis, Maceió, Alagoas, Região Nordeste, Brasil"}, "bbox": [-35.7548024, -9.6045359, -35.7297284, -9.5844306], "geometry": {"type": "Polygon", "coordinates": [[[-35.7548024, -9.5933086], [-35.7546751, -9.5933821], [-35.7538599, -9.5938533], [-35.7535367, -9.5940401], [-35.753183, -9.5942445], [-35.7529563, -9.5943839], [-35.7525937, -9.5946069], [-35.752583, -9.5946171], [-35.7521727, -9.595006], [-35.7519354, -9.5952309], [-35.7517553, -9.5954016], [-35.7517414, -9.5954187], [-35.7513927, -9.595848], [-35.7513872, -9.595859], [-35.7512058, -9.5962215], [-35.7506513, -9.5973299], [-35.7503673, -9.5978975], [-35.7499839, -9.5986125], [-35.7499023, -9.5987455], [-35.7487622, -9.6006028], [-35.7485641, -9.6009185], [-35.7481173, -9.6016303], [-35.7477575, -9.6022036], [-35.7476138, -9.6023667], [-35.7472314, -9.6028005], [-35.7471293, -9.6029164], [-35.7470574, -9.6029491], [-35.7466494, -9.6031345], [-35.7459674, -9.6034514], [-35.7451227, -9.6038234], [-35.7449768, -9.6038888], [-35.7438942, -9.6043304], [-35.7433905, -9.6045359], [-35.7397425, -9.6014341], [-35.7396976, -9.6010721], [-35.7399563, -9.6005755], [-35.7402013, -9.6001326], [-35.7394118, -9.6003742], [-35.7385814, -9.600911], [-35.7381867, -9.6009513], [-35.7376694, -9.601166], [-35.7374108, -9.6015284], [-35.7371658, -9.6018371], [-35.7367166, -9.6019982], [-35.736349, -9.601864], [-35.7357773, -9.6019713], [-35.7354098, -9.6022532], [-35.735015, -9.60228], [-35.7345794, -9.6021458], [-35.7338209, -9.6023988], [-35.7332675, -9.6022736], [-35.7329227, -9.602032], [-35.7329681, -9.6015132], [-35.7326596, -9.6006276], [-35.7301194, -9.5993932], [-35.7297284, -9.5983616], [-35.730345, -9.5976149], [-35.7306663, -9.5971502], [-35.7309234, -9.5964743], [-35.731716, -9.5956083], [-35.7319516, -9.5950803], [-35.7341982, -9.5943098], [-35.7335092, -9.5939314], [-35.7339376, -9.5930866], [-35.733959, -9.5921783], [-35.7362725, -9.591777], [-35.7427494, -9.5949538], [-35.7426436, -9.5938351], [-35.7420771, -9.5923854], [-35.7412003, -9.5912681], [-35.7406608, -9.5904834], [-35.7400268, -9.5903903], [-35.7399593, -9.5898849], [-35.7398919, -9.5889938], [-35.7401212, -9.5885282], [-35.7399998, -9.5872647], [-35.7399863, -9.5864134], [-35.7396491, -9.5851499], [-35.7406203, -9.585509], [-35.7412003, -9.5864134], [-35.7421446, -9.5855622], [-35.7442812, -9.5844306], [-35.7446265, -9.5844442], [-35.7449235, -9.5848324], [-35.745476, -9.58488], [-35.7458835, -9.5852614], [-35.745773, -9.5853431], [-35.7451228, -9.5861518], [-35.7452065, -9.5872367], [-35.7451228, -9.5884876], [-35.7445841, -9.5892639], [-35.7466077, -9.590694], [-35.7494462, -9.5933226], [-35.7497363, -9.593171], [-35.7505219, -9.5928306], [-35.7512125, -9.5926433], [-35.7532398, -9.5910089], [-35.7541045, -9.5925837], [-35.754588, -9.5929497], [-35.7548024, -9.5933086]]]}}]}