{"type": "FeatureCollection", "features": [{"type": "Feature", "properties": {"place_id": 14706788, "osm_type": "relation", "osm_id": 400309, "place_rank": 20, "category": "boundary", "type": "administrative", "importance": 0.14673040283817804, "addresstype": "suburb", "name": "Jatiúca", "display_name": "Jatiúca, Maceió, Alagoas, Região Nordeste, Brasil"}, "bbox": [-35.7230332, -9.6572571, -35.6979382, -9.6394906], "geometry": {"type": "Polygon", "coordinates": [[[-35.7230332, -9.6569574], [-35.7228448, -9.65721], [-35.7226814, -9.6572571], [-35.721144, -9.6558574], [-35.7180762, -9.6558794], [-35.7180799, -9.6563731], [-35.711425, -9.6563545], [-35.7102268, -9.6563615], [-35.710232, -9.6566959], [-35.708923, -9.6567056], [-35.70892, -9.6557967], [-35.6982183, -9.6557619], [-35.6984747, -9.6518617], [-35.6985605, -9.6515655], [-35.6988609, -9.6508569], [-35.6993437, -9.6495665], [-35.6996119, -9.6484982], [-35.6996763, -9.6478424], [-35.6996119, -9.647303], [-35.6995475, -9.6469751], [-35.6992364, -9.6459174], [-35.698961, -9.6453145], [-35.6987858, -9.6448068], [-35.6985927, -9.6445106], [-35.698024, -9.6435164], [-35.6979382, -9.6431144], [-35.6979597, -9.6406817], [-35.6980128, -9.6396722], [-35.6998311, -9.6394906], [-35.6999948, -9.6395309], [-35.7001965, -9.6396722], [-35.7003023, -9.639806], [-35.7010895, -9.6397975], [-35.7010946, -9.6398303], [-35.7024717, -9.6398053], [-35.7042617, -9.6398245], [-35.7043216, -9.6401624], [-35.7043839, -9.6405136], [-35.7044269, -9.6406931], [-35.7044374, -9.6408153], [-35.7050664, -9.6407458], [-35.7055788, -9.6406995], [-35.7055456, -9.6408168], [-35.7056643, -9.6412204], [-35.7057633, -9.6414985], [-35.7058574, -9.6423179], [-35.7059138, -9.6429937], [-35.7080564, -9.6428394], [-35.7081517, -9.6428286], [-35.7085316, -9.6427836], [-35.7087076, -9.6427617], [-35.7092034, -9.6426964], [-35.7098118, -9.6427002], [-35.7100971, -9.6426884], [-35.710257, -9.6427227], [-35.710285, -9.6427287], [-35.7103184, -9.6427534], [-35.7103595, -9.6449825], [-35.7104767, -9.644987], [-35.7150094, -9.6499373], [-35.7160447, -9.6509818], [-35.7162509, -9.6510948], [-35.7165606, -9.6512107], [-35.71673, -9.6512372], [-35.7173389, -9.6512638], [-35.7173955, -9.6512882], [-35.7183667, -9.6521964], [-35.718592, -9.6523462], [-35.7191479, -9.6529964], [-35.7201038, -9.653949], [-35.7212098, -9.6550745], [-35.7230332, -9.6569574]]]}}]}