{"type": "FeatureCollection", "features": [{"type": "Feature", "properties": {"place_id": 15013922, "osm_type": "relation", "osm_id": 400190, "place_rank": 20, "category": "boundary", "type": "administrative", "importance": 0.14673040283817804, "addresstype": "suburb", "name": "Levada", "display_name": "Levada, Maceió, Alagoas, Região Nordeste, Brasil"}, "bbox": [-35.7500182, -9.6652554, -35.7397005, -9.6542771], "geometry": {"type": "Polygon", "coordinates": [[[-35.7500182, -9.6559951], [-35.7488953, -9.6583819], [-35.7480799, -9.6617662], [-35.7481466, -9.6618915], [-35.7479568, -9.6620024], [-35.7489196, -9.6638213], [-35.7490194, -9.6647608], [-35.7460622, -9.6649216], [-35.7450353, -9.6649233], [-35.7433647, -9.6652554], [-35.7432623, -9.6644751], [-35.7431048, -9.6644645], [-35.7428805, -9.6644783], [-35.7430057, -9.6640181], [-35.7433826, -9.6618714], [-35.7433914, -9.6617917], [-35.7429528, -9.6608662], [-35.7417011, -9.6598309], [-35.7407963, -9.6592679], [-35.7404232, -9.6590504], [-35.7402113, -9.6588874], [-35.7400271, -9.658695], [-35.7398157, -9.6582689], [-35.7397648, -9.6581172], [-35.7397036, -9.6579179], [-35.7397005, -9.657686], [-35.7397093, -9.6575345], [-35.7397335, -9.6574388], [-35.7403904, -9.6556599], [-35.7409292, -9.6542771], [-35.7432549, -9.6550954], [-35.7455939, -9.6557554], [-35.7466514, -9.6556086], [-35.7470475, -9.6545321], [-35.7471538, -9.6543933], [-35.7476675, -9.6549714], [-35.7486831, -9.6549803], [-35.7500182, -9.6559951]]]}}]}