{"type": "FeatureCollection", "features": [{"type": "Feature", "properties": {"place_id": 14681528, "osm_type": "relation", "osm_id": 400310, "place_rank": 20, "category": "boundary", "type": "administrative", "importance": 0.14673040283817804, "addresstype": "suburb", "name": "Mangabeiras", "display_name": "Mangabeiras, Maceió, Alagoas, Região Nordeste, Brasil"}, "bbox": [-35.7245894, -9.6570189, -35.7024599, -9.6387376], "geometry": {"type": "Polygon", "coordinates": [[[-35.7245894, -9.6569854], [-35.723742, -9.6570189], [-35.7233993, -9.6569968], [-35.723169, -9.6569718], [-35.7230937, -9.6569633], [-35.7230332, -9.6569574], [-35.7212098, -9.6550745], [-35.7201038, -9.653949], [-35.7191479, -9.6529964], [-35.718592, -9.6523462], [-35.7183667, -9.6521964], [-35.7173955, -9.6512882], [-35.7173389, -9.6512638], [-35.71673, -9.6512372], [-35.7165606, -9.6512107], [-35.7162509, -9.6510948], [-35.7160447, -9.6509818], [-35.7150094, -9.6499373], [-35.7104767, -9.644987], [-35.7103595, -9.6449825], [-35.7103184, -9.6427534], [-35.710285, -9.6427287], [-35.710257, -9.6427227], [-35.7100971, -9.6426884], [-35.7098118, -9.6427002], [-35.7092034, -9.6426964], [-35.7087076, -9.6427617], [-35.7085316, -9.6427836], [-35.7081517, -9.6428286], [-35.7080564, -9.6428394], [-35.7059138, -9.6429937], [-35.7058574, -9.6423179], [-35.7057633, -9.6414985], [-35.7056643, -9.6412204], [-35.7055456, -9.6408168], [-35.7055788, -9.6406995], [-35.7050664, -9.6407458], [-35.7044374, -9.6408153], [-35.7044269, -9.6406931], [-35.7043839, -9.6405136], [-35.7043216, -9.6401624], [-35.7042617, -9.6398245], [-35.7024717, -9.6398053], [-35.7024599, -9.6387511], [-35.7041562, -9.6388245], [-35.7041914, -9.638785], [-35.7051926, -9.638828], [-35.7052572, -9.6390022], [-35.7060241, -9.6389316], [-35.706366, -9.6389006], [-35.7075982, -9.6387376], [-35.7077469, -9.6392672], [-35.7078302, -9.6396572], [-35.7082093, -9.6403616], [-35.7077655, -9.640579], [-35.7078827, -9.6406381], [-35.7078433, -9.6407548], [-35.7086432, -9.6412713], [-35.7087953, -9.6411213], [-35.709015, -9.6412213], [-35.7094051, -9.6413268], [-35.7098065, -9.6412852], [-35.7098779, -9.641348], [-35.7105881, -9.6419724], [-35.7109332, -9.6418058], [-35.7111515, -9.6420002], [-35.7113909, -9.642861], [-35.7126725, -9.6429999], [-35.7130738, -9.643347], [-35.7134268, -9.6433124], [-35.7142364, -9.6439107], [-35.7141426, -9.6441753], [-35.7146097, -9.6440557], [-35.7148928, -9.6441627], [-35.7149417, -9.6444703], [-35.715325, -9.6443387], [-35.715806, -9.6441193], [-35.7167428, -9.645339], [-35.7180124, -9.6471485], [-35.7185127, -9.6478615], [-35.7186104, -9.6488357], [-35.718934, -9.6487828], [-35.7192388, -9.6488671], [-35.7193554, -9.6489293], [-35.719572, -9.6491002], [-35.719885, -9.6494263], [-35.719921, -9.6495645], [-35.7191068, -9.6497055], [-35.7201741, -9.6508987], [-35.7205372, -9.6514085], [-35.7202181, -9.651799], [-35.7211203, -9.6519834], [-35.7220335, -9.6535995], [-35.7224186, -9.6536321], [-35.7225066, -9.6537514], [-35.7222316, -9.6539141], [-35.7227927, -9.6547168], [-35.7232218, -9.654771], [-35.7234859, -9.6555194], [-35.724003, -9.6556604], [-35.7245894, -9.6569854]]]}}]}