{"type": "FeatureCollection", "features": [{"type": "Feature", "properties": {"place_id": 14887157, "osm_type": "relation", "osm_id": 401084, "place_rank": 20, "category": "boundary", "type": "administrative", "importance": 0.14673040283817804, "addresstype": "suburb", "name": "Mutange", "display_name": "Mutange, Maceió, Alagoas, Região Nordeste, Brasil"}, "bbox": [-35.7515721, -9.6457171, -35.7436579, -9.6325162], "geometry": {"type": "Polygon", "coordinates": [[[-35.7515721, -9.6337124], [-35.7514676, -9.6344016], [-35.7512346, -9.6345442], [-35.7512185, -9.6347027], [-35.7507766, -9.6350988], [-35.7506721, -9.6356058], [-35.7501659, -9.6363029], [-35.7500879, -9.6366189], [-35.7501372, -9.6367647], [-35.7498907, -9.6371048], [-35.7497182, -9.6375179], [-35.7497675, -9.637777], [-35.7497182, -9.6387245], [-35.748905, -9.6402308], [-35.7486339, -9.6410164], [-35.7485107, -9.6414537], [-35.7479932, -9.6423445], [-35.7468514, -9.6435431], [-35.7462489, -9.6457171], [-35.7438768, -9.6444926], [-35.7436864, -9.6443044], [-35.7436579, -9.643977], [-35.7437091, -9.6434496], [-35.7438429, -9.6429358], [-35.7440678, -9.6424979], [-35.744594, -9.6414274], [-35.745221, -9.6403847], [-35.7456065, -9.6397586], [-35.7454663, -9.6393724], [-35.7453125, -9.6389489], [-35.7448433, -9.6384477], [-35.7458749, -9.636707], [-35.7462285, -9.6362237], [-35.7465423, -9.6363494], [-35.7467787, -9.6360529], [-35.7468405, -9.6357396], [-35.7471592, -9.6350719], [-35.7474017, -9.6341957], [-35.7474258, -9.6336728], [-35.7473374, -9.6334272], [-35.7474499, -9.6331262], [-35.7474097, -9.6328727], [-35.7469195, -9.6325241], [-35.7471847, -9.6325162], [-35.7479802, -9.6328648], [-35.7482374, -9.6328885], [-35.7488427, -9.6332178], [-35.7499007, -9.633855], [-35.7502382, -9.6331975], [-35.7515721, -9.6337124]]]}}]}