{"type": "FeatureCollection", "features": [{"type": "Feature", "properties": {"place_id": 14850226, "osm_type": "relation", "osm_id": 402035, "place_rank": 20, "category": "boundary", "type": "administrative", "importance": 0.14673040283817804, "addresstype": "suburb", "name": "Ouro Preto", "display_name": "Ouro Preto, Maceió, Alagoas, Região Nordeste, 57045-850, Brasil"}, "bbox": [-35.7340114, -9.6129837, -35.7275535, -9.5983616], "geometry": {"type": "Polygon", "coordinates": [[[-35.7340114, -9.6026671], [-35.7338663, -9.6030428], [-35.7335124, -9.6031323], [-35.7334126, -9.6029355], [-35.7331677, -9.6029445], [-35.7330044, -9.6032218], [-35.7334943, -9.6035348], [-35.7336032, -9.6038569], [-35.7335578, -9.6041163], [-35.7333432, -9.6045814], [-35.7331494, -9.6044251], [-35.7327724, -9.6046163], [-35.7328801, -9.6049668], [-35.7328693, -9.6053173], [-35.7327293, -9.6054979], [-35.7324277, -9.6054448], [-35.7324169, -9.6056572], [-35.7322445, -9.6056891], [-35.7323523, -9.606029], [-35.7322122, -9.6064433], [-35.7323073, -9.6067211], [-35.7322728, -9.606976], [-35.7317385, -9.6073669], [-35.7315748, -9.6075708], [-35.7316437, -9.6077918], [-35.7314196, -9.6079702], [-35.7316006, -9.6080977], [-35.7315317, -9.6083441], [-35.7312904, -9.608531], [-35.7310577, -9.608769], [-35.7311094, -9.6091768], [-35.7311008, -9.6094742], [-35.731299, -9.6096612], [-35.731299, -9.6101625], [-35.7315661, -9.6105619], [-35.7315144, -9.6108168], [-35.7317988, -9.6111312], [-35.731592, -9.6119555], [-35.7315317, -9.6121339], [-35.7316868, -9.6122444], [-35.7316523, -9.6124483], [-35.7312473, -9.6125418], [-35.7312817, -9.6127712], [-35.7303973, -9.6129837], [-35.7298542, -9.612853], [-35.7296887, -9.6125289], [-35.7298566, -9.6123495], [-35.729747, -9.6118629], [-35.729226, -9.611579], [-35.7288558, -9.6110924], [-35.7288156, -9.6106464], [-35.7288696, -9.6100516], [-35.7286077, -9.6099108], [-35.7285679, -9.6098894], [-35.7284857, -9.6095109], [-35.7287013, -9.6093806], [-35.7289107, -9.6092541], [-35.7291437, -9.6089432], [-35.7289929, -9.6085377], [-35.7286776, -9.608362], [-35.7285817, -9.6079429], [-35.728705, -9.6073887], [-35.7289107, -9.6068616], [-35.7288284, -9.6063479], [-35.7286365, -9.6057667], [-35.7282801, -9.6055369], [-35.7281978, -9.605199], [-35.7284583, -9.604861], [-35.7284994, -9.6044285], [-35.7279647, -9.6036985], [-35.7278139, -9.6034823], [-35.7278276, -9.6030497], [-35.7278825, -9.6025361], [-35.7276905, -9.6022792], [-35.7280881, -9.6018061], [-35.7278825, -9.6009004], [-35.7275535, -9.6004814], [-35.7275535, -9.600184], [-35.7280915, -9.6001436], [-35.7284386, -9.5996214], [-35.7288707, -9.5986687], [-35.7293597, -9.5984808], [-35.7297284, -9.5983616], [-35.7301194, -9.5993932], [-35.7326596, -9.6006276], [-35.7329681, -9.6015132], [-35.7329227, -9.602032], [-35.7332675, -9.6022736], [-35.7338209, -9.6023988], [-35.7340114, -9.6026671]]]}}]}