{"type": "FeatureCollection", "features": [{"type": "Feature", "properties": {"place_id": 14771909, "osm_type": "relation", "osm_id": 400153, "place_rank": 20, "category": "boundary", "type": "administrative", "importance": 0.14673040283817804, "addresstype": "suburb", "name": "Pajuçara", "display_name": "Pajuçara, Maceió, Alagoas, Região Nordeste, Brasil"}, "bbox": [-35.7200725, -9.6744347, -35.7081405, -9.6622978], "geometry": {"type": "Polygon", "coordinates": [[[-35.7200725, -9.674135], [-35.7199353, -9.6741376], [-35.7190277, -9.674012], [-35.7183238, -9.6740535], [-35.7176363, -9.6742139], [-35.7166942, -9.6744347], [-35.7156694, -9.6727962], [-35.7152866, -9.6722034], [-35.714475, -9.6710511], [-35.7139903, -9.6703018], [-35.7134402, -9.6695686], [-35.713091, -9.6691484], [-35.7122898, -9.6683237], [-35.7110576, -9.6669826], [-35.7096009, -9.6656876], [-35.7093611, -9.6654919], [-35.7090827, -9.6653012], [-35.7083464, -9.6648993], [-35.7081405, -9.6648102], [-35.7090878, -9.6630971], [-35.7086316, -9.6629332], [-35.7088739, -9.6622978], [-35.7098587, -9.662624], [-35.7104864, -9.662942], [-35.7116489, -9.6637504], [-35.7138622, -9.6659623], [-35.7163236, -9.6686954], [-35.7195164, -9.6637596], [-35.7196895, -9.668249], [-35.7196836, -9.6683095], [-35.7196884, -9.6697858], [-35.718417, -9.6721118], [-35.7182093, -9.6722507], [-35.7189759, -9.6733181], [-35.7195458, -9.673772], [-35.7200725, -9.674135]]]}}]}