{"type": "FeatureCollection", "features": [{"type": "Feature", "properties": {"place_id": 14842321, "osm_type": "relation", "osm_id": 401085, "place_rank": 20, "category": "boundary", "type": "administrative", "importance": 0.14673040283817804, "addresstype": "suburb", "name": "Pinheiro", "display_name": "Pinheiro, Maceió, Alagoas, Região Nordeste, Brasil"}, "bbox": [-35.7496933, -9.6443044, -35.7359972, -9.6220199], "geometry": {"type": "Polygon", "coordinates": [[[-35.7496933, -9.6314029], [-35.7488427, -9.6332178], [-35.7482374, -9.6328885], [-35.7479802, -9.6328648], [-35.7471847, -9.6325162], [-35.7469195, -9.6325241], [-35.7474097, -9.6328727], [-35.7474499, -9.6331262], [-35.7473374, -9.6334272], [-35.7474258, -9.6336728], [-35.7474017, -9.6341957], [-35.7471592, -9.6350719], [-35.7468405, -9.6357396], [-35.7467787, -9.6360529], [-35.7465423, -9.6363494], [-35.7462285, -9.6362237], [-35.7458749, -9.636707], [-35.7448433, -9.6384477], [-35.7453125, -9.6389489], [-35.7454663, -9.6393724], [-35.7456065, -9.6397586], [-35.745221, -9.6403847], [-35.744594, -9.6414274], [-35.7440678, -9.6424979], [-35.7438429, -9.6429358], [-35.7437091, -9.6434496], [-35.7436579, -9.643977], [-35.7436864, -9.6443044], [-35.7428654, -9.6439498], [-35.7425694, -9.6438868], [-35.742136, -9.6437131], [-35.7411393, -9.6429913], [-35.7410034, -9.6426975], [-35.7410144, -9.6427768], [-35.7409888, -9.6429352], [-35.7408808, -9.6429942], [-35.7407899, -9.6430269], [-35.7406285, -9.6430652], [-35.7402981, -9.6431066], [-35.7398772, -9.6429464], [-35.7404855, -9.6417366], [-35.741645, -9.6423049], [-35.741681, -9.642234], [-35.7423849, -9.6408478], [-35.7423358, -9.640808], [-35.7415622, -9.6401798], [-35.7415749, -9.6401197], [-35.7416698, -9.6396684], [-35.7407922, -9.6392914], [-35.7359972, -9.6372045], [-35.7364688, -9.6349433], [-35.7370104, -9.6321544], [-35.7371768, -9.6313817], [-35.7381031, -9.6267125], [-35.7385934, -9.6240824], [-35.7388221, -9.6221069], [-35.7403211, -9.6220199], [-35.7431205, -9.6239561], [-35.7433555, -9.6222371], [-35.7435095, -9.6221106], [-35.7440999, -9.6222371], [-35.7443939, -9.6224954], [-35.7446903, -9.6227559], [-35.7446261, -9.6229458], [-35.7444593, -9.6232495], [-35.744562, -9.623414], [-35.744716, -9.6232621], [-35.744947, -9.6231103], [-35.7449085, -9.6235279], [-35.7451267, -9.6233633], [-35.7453064, -9.6231103], [-35.7455503, -9.6232241], [-35.745807, -9.6235532], [-35.7459481, -9.6239328], [-35.7460858, -9.6245049], [-35.745714, -9.6248078], [-35.7451351, -9.6252093], [-35.7448858, -9.6252743], [-35.7446273, -9.6254049], [-35.7441646, -9.6254177], [-35.7442981, -9.6256774], [-35.7442849, -9.6257422], [-35.7444361, -9.6259819], [-35.7445149, -9.6261309], [-35.7447318, -9.6263253], [-35.7450144, -9.6266816], [-35.7442018, -9.628054], [-35.7467052, -9.629197], [-35.7467782, -9.6292329], [-35.7472063, -9.6294288], [-35.7470868, -9.6297333], [-35.7494426, -9.6307225], [-35.7493499, -9.6312591], [-35.7496933, -9.6314029]]]}}]}