{"type": "FeatureCollection", "features": [{"type": "Feature", "properties": {"place_id": 14841705, "osm_type": "relation", "osm_id": 400603, "place_rank": 20, "category": "boundary", "type": "administrative", "importance": 0.14673040283817804, "addresstype": "suburb", "name": "Pitanguinha", "display_name": "Pitanguinha, Maceió, Alagoas, Região Nordeste, Brasil"}, "bbox": [-35.7371768, -9.6434089, -35.7284901, -9.6290832], "geometry": {"type": "Polygon", "coordinates": [[[-35.7371768, -9.6313817], [-35.7370104, -9.6321544], [-35.7364688, -9.6349433], [-35.7359972, -9.6372045], [-35.7351591, -9.6415289], [-35.734797, -9.6434089], [-35.7331255, -9.64265], [-35.7332063, -9.6422735], [-35.7311476, -9.6414115], [-35.7308992, -9.6414692], [-35.7303853, -9.6422276], [-35.7303926, -9.6423868], [-35.7303276, -9.6423477], [-35.7302127, -9.6422787], [-35.7301326, -9.6421069], [-35.7301063, -9.6419753], [-35.730102, -9.6416886], [-35.7301493, -9.6414606], [-35.7302395, -9.6412662], [-35.7303299, -9.6409166], [-35.7301276, -9.6404949], [-35.7295897, -9.640441], [-35.7292155, -9.6403647], [-35.7291059, -9.640191], [-35.7291172, -9.6399903], [-35.7290696, -9.6397323], [-35.7287721, -9.6396073], [-35.7286763, -9.6395324], [-35.7285883, -9.6394095], [-35.7284901, -9.638996], [-35.7285526, -9.6383712], [-35.72874, -9.6372185], [-35.7289007, -9.6369193], [-35.7288828, -9.6361889], [-35.7286954, -9.6356258], [-35.7286061, -9.6351682], [-35.7285976, -9.6349899], [-35.7285916, -9.6348625], [-35.7285794, -9.634605], [-35.7289364, -9.6343058], [-35.7291417, -9.634253], [-35.7291952, -9.6340155], [-35.7294184, -9.6338747], [-35.7295165, -9.6324843], [-35.7294362, -9.6323435], [-35.7295433, -9.6322028], [-35.7295281, -9.6321622], [-35.7294808, -9.6320356], [-35.7293648, -9.6319476], [-35.7293702, -9.6318965], [-35.7294334, -9.6312995], [-35.7295112, -9.6305643], [-35.7296468, -9.6299377], [-35.7298539, -9.6295857], [-35.7301824, -9.6293675], [-35.7304934, -9.629257], [-35.7309833, -9.6290832], [-35.7327898, -9.629569], [-35.733511, -9.6298224], [-35.7340537, -9.6301533], [-35.7351635, -9.6306368], [-35.7371768, -9.6313817]]]}}]}