{"type": "FeatureCollection", "features": [{"type": "Feature", "properties": {"name": "Poço", "fonte": "overpass_boundary_administrative", "osm_relation_id": 400191, "aviso": "poligono reconstruido a partir da relation administrativa do OSM; um trecho da fronteira (onde a relation do OSM esta incompleta) foi fechado com uma linha reta entre os dois pontos soltos, o resto vem de dados reais do OSM"}, "geometry": {"type": "Polygon", "coordinates": [[[-35.7290047, -9.6600626], [-35.7291102, -9.6599401], [-35.7291989, -9.6598272], [-35.7292587, -9.6597696], [-35.7293813, -9.6597029], [-35.7293284, -9.6590067], [-35.7294166, -9.6586934], [-35.7292872, -9.6582641], [-35.729805, -9.6575564], [-35.729758, -9.6572025], [-35.729958, -9.6567848], [-35.7297109, -9.6562162], [-35.7303406, -9.6561176], [-35.7309349, -9.6554852], [-35.7293637, -9.6559088], [-35.7290577, -9.6558565], [-35.7284515, -9.6558797], [-35.7284515, -9.655911], [-35.7284515, -9.6561524], [-35.7286578, -9.6568329], [-35.7287399, -9.6571039], [-35.728734, -9.6574868], [-35.7270188, -9.6573278], [-35.7268767, -9.658835], [-35.7260832, -9.6588502], [-35.7261375, -9.6585859], [-35.7261194, -9.6583631], [-35.7256465, -9.6575533], [-35.7255216, -9.6577061], [-35.7255096, -9.657908], [-35.7255361, -9.6581267], [-35.7254734, -9.658236], [-35.7252107, -9.6578106], [-35.7245894, -9.6569854], [-35.723742, -9.6570189], [-35.7233993, -9.6569968], [-35.723169, -9.6569718], [-35.7230937, -9.6569633], [-35.7230332, -9.6569574], [-35.7228448, -9.65721], [-35.7226814, -9.6572571], [-35.721144, -9.6558574], [-35.7180762, -9.6558794], [-35.7180799, -9.6563731], [-35.711425, -9.6563545], [-35.7102268, -9.6563615], [-35.710232, -9.6566959], [-35.7102904, -9.6589664], [-35.7108897, -9.6601295], [-35.7117807, -9.6601565], [-35.7117617, -9.6621974], [-35.7159026, -9.662317], [-35.7197474, -9.662352], [-35.7195164, -9.6637596], [-35.7196895, -9.668249], [-35.7196836, -9.6683095], [-35.7202599, -9.6685894], [-35.7203172, -9.6685185], [-35.7206603, -9.6680128], [-35.7209983, -9.6677151], [-35.7216384, -9.6673833], [-35.722074, -9.6672965], [-35.7227272, -9.6672667], [-35.7231596, -9.6672469], [-35.7278567, -9.6670284], [-35.7290047, -9.6600626]]]}}]}