{"type": "FeatureCollection", "features": [{"type": "Feature", "properties": {"place_id": 14831780, "osm_type": "relation", "osm_id": 400189, "place_rank": 20, "category": "boundary", "type": "administrative", "importance": 0.14673040283817804, "addresstype": "suburb", "name": "Ponta Grossa", "display_name": "Ponta Grossa, Maceió, Alagoas, Região Nordeste, Brasil"}, "bbox": [-35.7676854, -9.6647608, -35.7479568, -9.6554403], "geometry": {"type": "Polygon", "coordinates": [[[-35.7676854, -9.6592616], [-35.767195, -9.6604789], [-35.7666082, -9.6607504], [-35.7662842, -9.6618859], [-35.7661032, -9.6620961], [-35.7660331, -9.6624231], [-35.7655141, -9.66372], [-35.7645839, -9.663777], [-35.760183, -9.6640469], [-35.7577408, -9.6641959], [-35.7502779, -9.66472], [-35.7502198, -9.6647057], [-35.7501463, -9.6646877], [-35.7490194, -9.6647608], [-35.7489196, -9.6638213], [-35.7479568, -9.6620024], [-35.7481466, -9.6618915], [-35.7480799, -9.6617662], [-35.7488953, -9.6583819], [-35.7500182, -9.6559951], [-35.7505298, -9.6561871], [-35.7514875, -9.6557862], [-35.7517109, -9.6554403], [-35.7519382, -9.6556755], [-35.7520653, -9.6558071], [-35.7528877, -9.6566584], [-35.7559268, -9.660403], [-35.7583235, -9.6592733], [-35.7587906, -9.6592645], [-35.7588081, -9.6595097], [-35.7597745, -9.6595954], [-35.7606822, -9.6596323], [-35.7608738, -9.660059], [-35.7659918, -9.6578585], [-35.7661613, -9.6577856], [-35.7669307, -9.6574548], [-35.7676854, -9.6585201], [-35.7676854, -9.6592616]]]}}]}