{"type": "FeatureCollection", "features": [{"type": "Feature", "properties": {"place_id": 14842065, "osm_type": "relation", "osm_id": 400176, "place_rank": 20, "category": "boundary", "type": "administrative", "importance": 0.14673040283817804, "addresstype": "suburb", "name": "Ponta da Terra", "display_name": "Ponta da Terra, Maceió, Alagoas, Região Nordeste, Brasil"}, "bbox": [-35.7197474, -9.6686954, -35.7098587, -9.6601295], "geometry": {"type": "Polygon", "coordinates": [[[-35.7197474, -9.662352], [-35.7195164, -9.6637596], [-35.7163236, -9.6686954], [-35.7138622, -9.6659623], [-35.7116489, -9.6637504], [-35.7104864, -9.662942], [-35.7098587, -9.662624], [-35.7110867, -9.6605184], [-35.7108897, -9.6601295], [-35.7117807, -9.6601565], [-35.7117617, -9.6621974], [-35.7159026, -9.662317], [-35.7197474, -9.662352]]]}}]}