{"type": "FeatureCollection", "features": [{"type": "Feature", "properties": {"place_id": 14800609, "osm_type": "relation", "osm_id": 8130823, "place_rank": 20, "category": "boundary", "type": "administrative", "importance": 0.14673040283817804, "addresstype": "suburb", "name": "Pontal da Barra", "display_name": "Pontal da Barra, Maceió, Alagoas, Região Nordeste, Brasil"}, "bbox": [-35.7969936, -9.7131396, -35.7588725, -9.6754925], "geometry": {"type": "Polygon", "coordinates": [[[-35.7969936, -9.7115477], [-35.7968218, -9.7116067], [-35.7964121, -9.7120067], [-35.7958024, -9.7123509], [-35.7947822, -9.7130863], [-35.7947537, -9.7130918], [-35.7945054, -9.7131396], [-35.793643, -9.71229], [-35.7933829, -9.7119144], [-35.7929649, -9.7117034], [-35.7924872, -9.7119389], [-35.7915174, -9.7118189], [-35.7907114, -9.7112181], [-35.7902382, -9.7110301], [-35.7898406, -9.7111735], [-35.7884896, -9.709607], [-35.7871914, -9.7081899], [-35.7862902, -9.7073122], [-35.7855392, -9.7062441], [-35.7845307, -9.7051865], [-35.7823044, -9.7024369], [-35.780482, -9.7008978], [-35.7786375, -9.6996605], [-35.7781156, -9.6993942], [-35.7773635, -9.69889], [-35.7766306, -9.6975644], [-35.775075, -9.6960794], [-35.7711408, -9.6926217], [-35.7690513, -9.6910262], [-35.7665345, -9.6894474], [-35.7646209, -9.6880363], [-35.7638556, -9.686823], [-35.7634242, -9.6863738], [-35.7627068, -9.6855635], [-35.7616635, -9.6841963], [-35.760492, -9.6826664], [-35.7597152, -9.6819299], [-35.7588725, -9.6811833], [-35.7601229, -9.6777426], [-35.763376, -9.6767363], [-35.7631787, -9.6762763], [-35.7639137, -9.676122], [-35.7641702, -9.6761113], [-35.7655963, -9.675757], [-35.7658487, -9.675688], [-35.7660686, -9.6756848], [-35.7666281, -9.6755537], [-35.7669057, -9.6755905], [-35.7672126, -9.6755286], [-35.7675297, -9.6754925], [-35.7677915, -9.6755025], [-35.7681188, -9.6756658], [-35.7683379, -9.6759646], [-35.7685999, -9.6766381], [-35.7686689, -9.6781132], [-35.7685667, -9.678473], [-35.7686303, -9.6787724], [-35.7690324, -9.6811442], [-35.7693674, -9.6825303], [-35.7700685, -9.6842023], [-35.770392, -9.6846951], [-35.7713286, -9.6861429], [-35.7716497, -9.6865932], [-35.7721298, -9.6872705], [-35.7725891, -9.6878861], [-35.7728809, -9.6884748], [-35.7745956, -9.689798], [-35.7771446, -9.6916702], [-35.7778792, -9.6919535], [-35.7785862, -9.6931973], [-35.779343, -9.6944146], [-35.7808666, -9.6963663], [-35.7822277, -9.6993533], [-35.7827115, -9.7004285], [-35.783485, -9.702579], [-35.7840669, -9.7033792], [-35.7848324, -9.7040255], [-35.7866848, -9.7051738], [-35.791682, -9.7072381], [-35.7918901, -9.707635], [-35.7939145, -9.7090954], [-35.7946847, -9.7100665], [-35.7958257, -9.7110045], [-35.7969936, -9.7115477]]]}}]}