{"type": "FeatureCollection", "features": [{"type": "Feature", "properties": {"place_id": 14829344, "osm_type": "relation", "osm_id": 400177, "place_rank": 20, "category": "boundary", "type": "administrative", "importance": 0.14670416800183103, "addresstype": "suburb", "name": "Prado", "display_name": "Prado, Maceió, Alagoas, Região Nordeste, Brasil"}, "bbox": [-35.7577474, -9.6771917, -35.7418058, -9.6641959], "geometry": {"type": "Polygon", "coordinates": [[[-35.7577474, -9.6649858], [-35.7577401, -9.6679621], [-35.7559253, -9.6680579], [-35.7554984, -9.6679547], [-35.7545758, -9.6677315], [-35.7545163, -9.6677171], [-35.7536615, -9.6705596], [-35.7553153, -9.671039], [-35.7542266, -9.6732912], [-35.7541529, -9.6734958], [-35.754052, -9.6736956], [-35.753895, -9.6740015], [-35.7523732, -9.6771917], [-35.750957, -9.6762389], [-35.7504472, -9.6758707], [-35.7495218, -9.6755115], [-35.7480084, -9.6745941], [-35.7454982, -9.6733884], [-35.743047, -9.6725077], [-35.7418058, -9.6720751], [-35.7419106, -9.669101], [-35.7421016, -9.6690182], [-35.7424015, -9.6689003], [-35.7426906, -9.6687102], [-35.7429326, -9.6684721], [-35.7431133, -9.6681953], [-35.7432853, -9.6678031], [-35.7433867, -9.6673855], [-35.7434834, -9.6660474], [-35.7434464, -9.6656869], [-35.7433647, -9.6652554], [-35.7450353, -9.6649233], [-35.7460622, -9.6649216], [-35.7490194, -9.6647608], [-35.7501463, -9.6646877], [-35.7502198, -9.6647057], [-35.7502779, -9.66472], [-35.7577408, -9.6641959], [-35.7577451, -9.6647474], [-35.7577474, -9.6649858]]]}}]}