{"type": "FeatureCollection", "features": [{"type": "Feature", "properties": {"place_id": 14949856, "osm_type": "relation", "osm_id": 5543411, "place_rank": 20, "category": "boundary", "type": "administrative", "importance": 0.14673040283817804, "addresstype": "suburb", "name": "Riacho Doce", "display_name": "Riacho Doce, Maceió, Alagoas, Região Nordeste, Brasil"}, "bbox": [-35.6815243, -9.5826219, -35.6198832, -9.5408961], "geometry": {"type": "Polygon", "coordinates": [[[-35.6815243, -9.5674516], [-35.6811397, -9.5678026], [-35.6805316, -9.5681533], [-35.6804304, -9.5682328], [-35.6804398, -9.5684588], [-35.6801989, -9.5689227], [-35.6800527, -9.5692063], [-35.6799267, -9.5694703], [-35.6797289, -9.5698104], [-35.6791318, -9.5702577], [-35.6790465, -9.5703859], [-35.6788872, -9.5708782], [-35.678856, -9.5709736], [-35.678814, -9.5710453], [-35.678765, -9.5711218], [-35.6786039, -9.5712916], [-35.6782254, -9.571491], [-35.6779385, -9.5717965], [-35.67726, -9.5731976], [-35.6770887, -9.5735174], [-35.677009, -9.5736173], [-35.6768802, -9.5738382], [-35.6759306, -9.5740593], [-35.6747488, -9.5738104], [-35.6740947, -9.573437], [-35.6720299, -9.5734267], [-35.6726949, -9.5744214], [-35.6731184, -9.574687], [-35.6731998, -9.5747381], [-35.6729015, -9.575236], [-35.6720673, -9.576314], [-35.671953, -9.5762438], [-35.6717385, -9.576398], [-35.6710754, -9.5767501], [-35.6707811, -9.5769878], [-35.6701521, -9.5774979], [-35.6699312, -9.577635], [-35.6695132, -9.5779563], [-35.6687325, -9.5783716], [-35.6684963, -9.5785817], [-35.6683186, -9.57875], [-35.6680954, -9.579557], [-35.6681398, -9.5799199], [-35.6679218, -9.579705], [-35.667394, -9.5793429], [-35.666717, -9.5791732], [-35.666086, -9.5791619], [-35.6656041, -9.5789243], [-35.6651336, -9.578551], [-35.6645599, -9.5782229], [-35.6635273, -9.5781889], [-35.6631257, -9.5784944], [-35.6628618, -9.5792185], [-35.6628159, -9.579671], [-35.6625405, -9.5802594], [-35.6622307, -9.5806554], [-35.6618636, -9.580644], [-35.6615193, -9.5803159], [-35.6613472, -9.5800218], [-35.6610604, -9.5797252], [-35.65911, -9.5808547], [-35.6595154, -9.5812023], [-35.6602556, -9.5819554], [-35.6589592, -9.5826219], [-35.6585302, -9.5824009], [-35.6573363, -9.5808775], [-35.6569085, -9.5801952], [-35.6560716, -9.5784205], [-35.655916, -9.5779947], [-35.6556183, -9.5772753], [-35.6552964, -9.576052], [-35.6549577, -9.5747943], [-35.6546352, -9.5739275], [-35.6544043, -9.5734567], [-35.6539215, -9.5726103], [-35.6532563, -9.5716582], [-35.6523872, -9.5709387], [-35.6514071, -9.570074], [-35.650971, -9.5692354], [-35.6506653, -9.5690226], [-35.6504078, -9.568844], [-35.6464649, -9.5670032], [-35.6452087, -9.5654778], [-35.6449673, -9.5652173], [-35.64486, -9.5650454], [-35.6447902, -9.5648179], [-35.6447151, -9.5644873], [-35.6446615, -9.564326], [-35.6441116, -9.5632627], [-35.6437817, -9.5627099], [-35.642902, -9.5614377], [-35.6395448, -9.5584759], [-35.6367446, -9.5562647], [-35.6342448, -9.5545507], [-35.6325547, -9.5536227], [-35.6302286, -9.5525453], [-35.6300255, -9.5524651], [-35.6284475, -9.5518417], [-35.6279623, -9.5516473], [-35.6274176, -9.5514291], [-35.6258726, -9.550699], [-35.6247676, -9.5500007], [-35.6239468, -9.5497151], [-35.6228471, -9.5493263], [-35.6222999, -9.5491279], [-35.621109, -9.5490009], [-35.6198832, -9.5488449], [-35.6199391, -9.5487931], [-35.6202761, -9.5487161], [-35.6206659, -9.5486047], [-35.6208191, -9.5482809], [-35.6209115, -9.5479875], [-35.6209336, -9.5477813], [-35.6208548, -9.5475948], [-35.6207178, -9.5474251], [-35.6205095, -9.5473218], [-35.6205975, -9.5471685], [-35.6206848, -9.5470332], [-35.6208027, -9.546979], [-35.6209036, -9.5469547], [-35.6210495, -9.5469572], [-35.6211879, -9.5469942], [-35.6213282, -9.5470039], [-35.62192, -9.5470176], [-35.6221862, -9.5470797], [-35.6223471, -9.5471661], [-35.6225201, -9.5474115], [-35.6226146, -9.5477469], [-35.6228234, -9.5480273], [-35.6231151, -9.5481949], [-35.6236018, -9.548391], [-35.6240219, -9.548452], [-35.6245236, -9.548469], [-35.6252239, -9.5486218], [-35.6254859, -9.5488367], [-35.6257169, -9.5489289], [-35.626015, -9.5492257], [-35.6262875, -9.5496963], [-35.6264314, -9.5500025], [-35.6265823, -9.5501892], [-35.6268349, -9.5503591], [-35.6269979, -9.550374], [-35.6271459, -9.5503259], [-35.6273108, -9.5502244], [-35.6275354, -9.5501874], [-35.6277603, -9.5502038], [-35.6279333, -9.5504428], [-35.6281993, -9.5505881], [-35.6287557, -9.5506137], [-35.6293824, -9.5505503], [-35.6296174, -9.5506858], [-35.6297198, -9.5508603], [-35.6298624, -9.5509415], [-35.6299515, -9.5510411], [-35.63003, -9.5511923], [-35.6301195, -9.5513443], [-35.6301974, -9.5514088], [-35.6303096, -9.5514486], [-35.6304334, -9.551445], [-35.6304679, -9.5514339], [-35.6305024, -9.5514228], [-35.6305559, -9.5513925], [-35.6306004, -9.5513714], [-35.6306485, -9.551353], [-35.6307048, -9.5513363], [-35.630804, -9.5513337], [-35.6309025, -9.5513574], [-35.630948, -9.5513643], [-35.6309962, -9.5513558], [-35.6310445, -9.5513545], [-35.6310899, -9.5513451], [-35.6311343, -9.5513249], [-35.6311892, -9.5512414], [-35.6312089, -9.5511897], [-35.6312158, -9.5511382], [-35.6312208, -9.5510893], [-35.6312442, -9.5510512], [-35.6312914, -9.5510292], [-35.6313404, -9.5510116], [-35.6313794, -9.5509878], [-35.6314174, -9.5509614], [-35.6314563, -9.5509367], [-35.6315026, -9.5509101], [-35.631542, -9.5508759], [-35.6316554, -9.5507779], [-35.6316879, -9.5507461], [-35.6317404, -9.5507032], [-35.6317848, -9.5506721], [-35.6318743, -9.5506019], [-35.6319286, -9.5505563], [-35.6319611, -9.550519], [-35.6319926, -9.5504781], [-35.6320306, -9.5504444], [-35.6320585, -9.5504062], [-35.6320686, -9.5503897], [-35.6320846, -9.5503636], [-35.6320918, -9.5503518], [-35.6321166, -9.5503159], [-35.6321413, -9.55028], [-35.6321584, -9.5502674], [-35.6321586, -9.5502672], [-35.6321703, -9.5502586], [-35.6322056, -9.5502325], [-35.6322473, -9.5502114], [-35.6322918, -9.5501975], [-35.6323491, -9.5501953], [-35.63241, -9.5501804], [-35.6324699, -9.55016], [-35.6325189, -9.5501317], [-35.6325643, -9.5501223], [-35.6326116, -9.5501138], [-35.6326588, -9.5500981], [-35.6327215, -9.5500859], [-35.6327687, -9.5500742], [-35.632816, -9.5500626], [-35.632865, -9.5500486], [-35.6329196, -9.5500356], [-35.6329585, -9.5500091], [-35.6330038, -9.5499762], [-35.6330418, -9.5499515], [-35.6331325, -9.5499038], [-35.6332205, -9.5498688], [-35.6332649, -9.5498432], [-35.6333148, -9.5498248], [-35.6333624, -9.5498027], [-35.6334128, -9.5497793], [-35.6334554, -9.5497595], [-35.6334999, -9.5497357], [-35.633547, -9.5497137], [-35.6335869, -9.5496881], [-35.6336331, -9.5496633], [-35.6336812, -9.5496404], [-35.6337928, -9.5495961], [-35.6338871, -9.5495475], [-35.6339316, -9.5495282], [-35.6339814, -9.5494962], [-35.6340166, -9.5494562], [-35.6340472, -9.5494099], [-35.6340815, -9.5493771], [-35.6341278, -9.5493641], [-35.6341769, -9.549352], [-35.6342113, -9.549321], [-35.6343015, -9.5492717], [-35.6343473, -9.5492467], [-35.6343926, -9.5492266], [-35.6344443, -9.5492], [-35.6344887, -9.5491825], [-35.6345387, -9.5491658], [-35.6345715, -9.5491516], [-35.6345879, -9.5491446], [-35.6346303, -9.5491272], [-35.6347192, -9.5490831], [-35.6347636, -9.5490629], [-35.6348052, -9.5490406], [-35.6348969, -9.5489914], [-35.6349449, -9.5489649], [-35.6349979, -9.5489371], [-35.6350447, -9.5489126], [-35.6350921, -9.5488899], [-35.6351463, -9.5488639], [-35.6351934, -9.5488437], [-35.63525, -9.5488278], [-35.6353251, -9.5488066], [-35.6354169, -9.5487878], [-35.635475, -9.5487584], [-35.6355195, -9.5487464], [-35.6355504, -9.5487243], [-35.6356001, -9.5486888], [-35.635637, -9.5486352], [-35.6356481, -9.5485999], [-35.6356592, -9.5485646], [-35.6357035, -9.5485317], [-35.635748, -9.548516], [-35.6357778, -9.5484797], [-35.6358075, -9.5484379], [-35.6358428, -9.5484069], [-35.6358873, -9.5483884], [-35.6359289, -9.5483638], [-35.6359712, -9.5483119], [-35.6360029, -9.5482783], [-35.6360661, -9.5481998], [-35.6360967, -9.5481619], [-35.6361136, -9.5481175], [-35.6361269, -9.5480686], [-35.6361383, -9.5480161], [-35.6361406, -9.5479619], [-35.6361803, -9.547911], [-35.6362228, -9.5478745], [-35.6362959, -9.5477962], [-35.6363293, -9.5477526], [-35.6363645, -9.5477117], [-35.6364052, -9.5476761], [-35.6364404, -9.547647], [-35.6364555, -9.5475899], [-35.6364706, -9.5475464], [-35.636501, -9.5474952], [-35.6365614, -9.547393], [-35.6365846, -9.5473332], [-35.6366097, -9.5472906], [-35.6366112, -9.5472454], [-35.6366373, -9.5472054], [-35.6366534, -9.5471628], [-35.6366584, -9.5471131], [-35.6366744, -9.5470579], [-35.6366691, -9.546963], [-35.6366487, -9.5469072], [-35.6366392, -9.5468539], [-35.6366142, -9.5468098], [-35.636569, -9.5467298], [-35.6365414, -9.5466952], [-35.6365139, -9.5466606], [-35.6364981, -9.5466174], [-35.6364868, -9.5465687], [-35.6364718, -9.54652], [-35.636445, -9.5464687], [-35.6363713, -9.5463545], [-35.6363419, -9.5463195], [-35.6363098, -9.5462863], [-35.6362696, -9.546264], [-35.6362213, -9.5462607], [-35.6361757, -9.5462511], [-35.6361309, -9.5462162], [-35.6360977, -9.5461668], [-35.6360828, -9.5461181], [-35.6360615, -9.5460722], [-35.6360492, -9.5460217], [-35.6360021, -9.5459317], [-35.6359872, -9.545883], [-35.6359831, -9.545827], [-35.6359846, -9.5457764], [-35.635996, -9.5457275], [-35.6360056, -9.5456696], [-35.6360079, -9.5456208], [-35.6360464, -9.5455347], [-35.6360954, -9.545519], [-35.6361282, -9.5454867], [-35.6361768, -9.5454388], [-35.6362093, -9.545407], [-35.6362372, -9.5453688], [-35.6363, -9.5453611], [-35.6363417, -9.5453427], [-35.6363852, -9.5453171], [-35.6364361, -9.5453086], [-35.6364924, -9.5452937], [-35.6365416, -9.5452915], [-35.6365925, -9.5452839], [-35.6366389, -9.5452889], [-35.6366928, -9.545312], [-35.6367485, -9.5453333], [-35.6367968, -9.5453356], [-35.6368577, -9.5453279], [-35.6368996, -9.5453462], [-35.6369527, -9.545367], [-35.6369938, -9.5453875], [-35.6370413, -9.5454088], [-35.6370878, -9.5454238], [-35.6371343, -9.5454289], [-35.6371965, -9.5454681], [-35.6372417, -9.5454705], [-35.637293, -9.5454692], [-35.6374531, -9.5454563], [-35.6375014, -9.5454559], [-35.637566, -9.5454572], [-35.6376158, -9.5454288], [-35.6376696, -9.5454284], [-35.6377441, -9.5454134], [-35.6377884, -9.5453706], [-35.6378748, -9.5453672], [-35.637934, -9.545374], [-35.6379906, -9.5453862], [-35.6380815, -9.5453702], [-35.6381418, -9.5453486], [-35.6381877, -9.5453323], [-35.638244, -9.5453165], [-35.6382912, -9.5452981], [-35.6383355, -9.5452562], [-35.6383547, -9.5452517], [-35.6384082, -9.5452394], [-35.6384563, -9.5452228], [-35.6385026, -9.5452034], [-35.6385589, -9.5451858], [-35.6386116, -9.5451714], [-35.6386606, -9.545158], [-35.6387161, -9.5451398], [-35.6387769, -9.5451199], [-35.6388238, -9.5451045], [-35.6388706, -9.5450893], [-35.6389248, -9.5450715], [-35.6389802, -9.5450534], [-35.6390265, -9.5450332], [-35.6390891, -9.5450047], [-35.639139, -9.5449899], [-35.6391889, -9.5449642], [-35.6392415, -9.5449349], [-35.6392964, -9.5449032], [-35.6393348, -9.5448809], [-35.639371, -9.5448481], [-35.639419, -9.5448152], [-35.6394742, -9.5447804], [-35.6395204, -9.5447476], [-35.6395739, -9.5447237], [-35.6396165, -9.5447016], [-35.6396582, -9.5446751], [-35.6397108, -9.5446503], [-35.6397626, -9.5446364], [-35.6398144, -9.544627], [-35.6398782, -9.5446337], [-35.63994, -9.5446287], [-35.6400009, -9.5446174], [-35.6400691, -9.5446026], [-35.6401127, -9.5445931], [-35.6401626, -9.5445737], [-35.6402262, -9.5445543], [-35.640277, -9.5445286], [-35.640325, -9.5445029], [-35.6403703, -9.5444763], [-35.640422, -9.544448], [-35.6404525, -9.544389], [-35.6404695, -9.5443535], [-35.6404821, -9.5443273], [-35.6405037, -9.5442757], [-35.6405258, -9.5442231], [-35.6405464, -9.5441741], [-35.6405616, -9.5441306], [-35.6405775, -9.5440745], [-35.6405844, -9.5440184], [-35.6405862, -9.5439515], [-35.6405874, -9.5439045], [-35.6405888, -9.5438548], [-35.64059, -9.5438088], [-35.6405887, -9.54376], [-35.6405897, -9.5437057], [-35.6405906, -9.5436596], [-35.6405916, -9.5436064], [-35.6405925, -9.5435575], [-35.6405933, -9.5435114], [-35.6405939, -9.543478], [-35.6405952, -9.5434121], [-35.6406075, -9.5433587], [-35.6406308, -9.5433124], [-35.640656, -9.5432688], [-35.6406701, -9.5432154], [-35.6406824, -9.5431584], [-35.6407001, -9.5430968], [-35.640716, -9.5430504], [-35.640734, -9.5429972], [-35.6407506, -9.5429544], [-35.6407893, -9.5428549], [-35.6408188, -9.5427878], [-35.6408447, -9.5427216], [-35.640874, -9.5426274], [-35.6408891, -9.5425713], [-35.640896, -9.5425234], [-35.6409019, -9.5424646], [-35.6409188, -9.5424121], [-35.6409293, -9.5423641], [-35.6409362, -9.5423062], [-35.6409566, -9.5422401], [-35.6409763, -9.5421902], [-35.6409914, -9.5421431], [-35.6410119, -9.5420951], [-35.6410334, -9.5420525], [-35.6410495, -9.5420063], [-35.6410728, -9.5419582], [-35.641087, -9.5419156], [-35.6411184, -9.5418558], [-35.6411497, -9.5417787], [-35.641166, -9.5417312], [-35.6411835, -9.5416809], [-35.6411954, -9.5416349], [-35.6412074, -9.5415885], [-35.6412179, -9.5415397], [-35.6412331, -9.5414905], [-35.6412454, -9.5414455], [-35.6412948, -9.5413611], [-35.6413184, -9.5413144], [-35.6413388, -9.541274], [-35.6413648, -9.5412365], [-35.6414189, -9.5411586], [-35.6414839, -9.5410859], [-35.6415938, -9.5409984], [-35.6416238, -9.5409858], [-35.6417086, -9.5409504], [-35.6417475, -9.5409266], [-35.6418411, -9.5408961], [-35.6419349, -9.5409117], [-35.6419732, -9.5409213], [-35.6420188, -9.5409327], [-35.6421099, -9.540941], [-35.6421582, -9.5409479], [-35.6422459, -9.5409888], [-35.6423891, -9.5410248], [-35.6815243, -9.5674516]]]}}]}