{"type": "FeatureCollection", "features": [{"type": "Feature", "properties": {"place_id": 14924908, "osm_type": "relation", "osm_id": 401581, "place_rank": 20, "category": "boundary", "type": "administrative", "importance": 0.14673040283817804, "addresstype": "suburb", "name": "Rio Novo", "display_name": "Rio Novo, Maceió, Alagoas, Região Nordeste, Brasil"}, "bbox": [-35.8138901, -9.5890828, -35.7991645, -9.5665018], "geometry": {"type": "Polygon", "coordinates": [[[-35.8138901, -9.5803806], [-35.8129441, -9.5810834], [-35.8120239, -9.5815562], [-35.8101318, -9.5820418], [-35.8079417, -9.5822974], [-35.8076177, -9.5837925], [-35.8072418, -9.5844187], [-35.805907, -9.5849681], [-35.8046629, -9.5854537], [-35.8043, -9.586591], [-35.8041315, -9.5872555], [-35.8032633, -9.58838], [-35.8016951, -9.5890828], [-35.8006195, -9.588495], [-35.8007102, -9.5873066], [-35.8011638, -9.5865271], [-35.7997492, -9.5858434], [-35.7991645, -9.5850974], [-35.7998317, -9.5838352], [-35.7994095, -9.5834897], [-35.7999866, -9.5825509], [-35.7999866, -9.5817711], [-35.7999055, -9.5816611], [-35.7997331, -9.5813412], [-35.7997636, -9.5808613], [-35.800453, -9.5793116], [-35.8005646, -9.5790217], [-35.8003719, -9.5784918], [-35.8003111, -9.5781119], [-35.8004226, -9.5777019], [-35.8019536, -9.5754224], [-35.8016495, -9.5740427], [-35.8017306, -9.5736227], [-35.8025519, -9.5726129], [-35.8032413, -9.572033], [-35.803434, -9.5712832], [-35.8037373, -9.5704933], [-35.8037382, -9.5700134], [-35.8035869, -9.5696628], [-35.8036351, -9.5694701], [-35.8036441, -9.5692691], [-35.8036239, -9.5690633], [-35.8035724, -9.5685383], [-35.8035596, -9.5683514], [-35.8035653, -9.5681839], [-35.8035938, -9.5680335], [-35.8036354, -9.5679149], [-35.8037094, -9.5677922], [-35.8038016, -9.567676], [-35.8038849, -9.5675917], [-35.8040792, -9.5674496], [-35.8047538, -9.5671231], [-35.8048363, -9.5670846], [-35.8050152, -9.5670002], [-35.8057823, -9.5666515], [-35.8060927, -9.5665631], [-35.8062316, -9.5665317], [-35.8064578, -9.5665031], [-35.8067694, -9.5665018], [-35.806924, -9.5665254], [-35.8071944, -9.5666014], [-35.8074147, -9.5667128], [-35.8074938, -9.5667667], [-35.8075672, -9.5668183], [-35.8085075, -9.56746], [-35.8085711, -9.5675031], [-35.8095347, -9.5676299], [-35.8097476, -9.5682287], [-35.8099178, -9.5687645], [-35.8101706, -9.569419], [-35.810397, -9.5700559], [-35.8106028, -9.570635], [-35.8094234, -9.5744602], [-35.8089622, -9.576541], [-35.8114828, -9.5785017], [-35.8124625, -9.5783975], [-35.8127422, -9.5795431], [-35.8138901, -9.5803806]]]}}]}