{"type": "FeatureCollection", "features": [{"type": "Feature", "properties": {"place_id": 14907347, "osm_type": "relation", "osm_id": 401504, "place_rank": 20, "category": "boundary", "type": "administrative", "importance": 0.14673040283817804, "addresstype": "suburb", "name": "Santa Amélia", "display_name": "Santa Amélia, Maceió, Alagoas, Região Nordeste, Brasil"}, "bbox": [-35.7938037, -9.6184532, -35.7618243, -9.5795385], "geometry": {"type": "Polygon", "coordinates": [[[-35.7938037, -9.5871628], [-35.7935477, -9.5874535], [-35.7924771, -9.5875912], [-35.7915151, -9.587377], [-35.7909876, -9.5873999], [-35.7902195, -9.5873235], [-35.7890946, -9.5868492], [-35.7881869, -9.5866426], [-35.7877137, -9.5860918], [-35.7875663, -9.585281], [-35.7870853, -9.5839117], [-35.7846803, -9.5825118], [-35.7828649, -9.5827413], [-35.7815538, -9.5833379], [-35.7808633, -9.5843554], [-35.780553, -9.5853269], [-35.7807852, -9.5857716], [-35.7813598, -9.5868721], [-35.7814002, -9.5871861], [-35.7801837, -9.588694], [-35.7796922, -9.5886548], [-35.7794638, -9.589115], [-35.7800894, -9.5892766], [-35.7803873, -9.5897123], [-35.7806058, -9.5904711], [-35.7802483, -9.5910341], [-35.7793992, -9.5913817], [-35.7784856, -9.5915923], [-35.7775969, -9.5913671], [-35.7765691, -9.5913573], [-35.7759137, -9.5914552], [-35.7751391, -9.5917098], [-35.7738879, -9.5925518], [-35.7735056, -9.5928994], [-35.7730041, -9.5935799], [-35.7727856, -9.5940744], [-35.7728254, -9.5945248], [-35.7727509, -9.5948822], [-35.7725275, -9.5949654], [-35.7723735, -9.5951661], [-35.7724629, -9.5952934], [-35.7724828, -9.5954746], [-35.7726665, -9.5956067], [-35.7726814, -9.5961844], [-35.7727807, -9.5963656], [-35.7729247, -9.5965957], [-35.7733666, -9.5968649], [-35.7729991, -9.5981231], [-35.7729842, -9.5983728], [-35.7727757, -9.5987204], [-35.7719465, -9.5999737], [-35.7710578, -9.5994253], [-35.7709734, -9.599675], [-35.7712935, -9.5999424], [-35.771439, -9.6008747], [-35.7715966, -9.601305], [-35.7716572, -9.6019623], [-35.7716693, -9.6028827], [-35.7718958, -9.6032155], [-35.771436, -9.6041001], [-35.7712229, -9.6043765], [-35.7706062, -9.604664], [-35.7702137, -9.604874], [-35.7696754, -9.605659], [-35.7694624, -9.6063335], [-35.7694003, -9.6067773], [-35.76951, -9.6074046], [-35.7696636, -9.6081941], [-35.7697623, -9.6086159], [-35.7701243, -9.6090269], [-35.7705631, -9.6094595], [-35.7710787, -9.6092216], [-35.771671, -9.6095136], [-35.7722085, -9.6101409], [-35.7725266, -9.6108115], [-35.7723073, -9.6112008], [-35.7718685, -9.6110494], [-35.7712103, -9.6107574], [-35.7703328, -9.6104437], [-35.7699488, -9.6105519], [-35.7694991, -9.6107033], [-35.7690493, -9.6108439], [-35.7686544, -9.6108006], [-35.7686215, -9.6111143], [-35.7691638, -9.6115062], [-35.7693394, -9.6113955], [-35.7697255, -9.6113678], [-35.7699782, -9.611527], [-35.7716261, -9.6127835], [-35.7718545, -9.613161], [-35.7717671, -9.6136313], [-35.7715925, -9.6139956], [-35.7713036, -9.6142804], [-35.7708804, -9.6143731], [-35.7704974, -9.6144129], [-35.7699533, -9.6144261], [-35.7695569, -9.6145122], [-35.7691539, -9.614797], [-35.7686567, -9.615307], [-35.7683343, -9.6153998], [-35.7679379, -9.6155786], [-35.7677162, -9.615817], [-35.7669504, -9.6163933], [-35.7664734, -9.6169099], [-35.7661241, -9.6173272], [-35.7659091, -9.6173404], [-35.7650224, -9.6177776], [-35.7646327, -9.6180028], [-35.76427, -9.6180624], [-35.7634168, -9.6183671], [-35.7630742, -9.6184532], [-35.7628055, -9.6183869], [-35.7624293, -9.6180558], [-35.762265, -9.6181612], [-35.7622774, -9.6179348], [-35.7621284, -9.6178614], [-35.7620229, -9.6177023], [-35.7618305, -9.617739], [-35.7618243, -9.6175799], [-35.7639593, -9.6150282], [-35.7674766, -9.6108806], [-35.7679978, -9.6101277], [-35.7669796, -9.609554], [-35.7673311, -9.605311], [-35.7682938, -9.6049731], [-35.7682069, -9.6025624], [-35.7683623, -9.6012947], [-35.768578, -9.6007152], [-35.7691583, -9.598439], [-35.7699527, -9.5989041], [-35.76909, -9.5962176], [-35.7683328, -9.5945531], [-35.7692824, -9.5944062], [-35.7694438, -9.5944307], [-35.7698906, -9.5944001], [-35.7700458, -9.5945776], [-35.7701885, -9.5945776], [-35.770294, -9.5946816], [-35.7706772, -9.5947275], [-35.7699787, -9.5914684], [-35.7706354, -9.591634], [-35.770654, -9.5908262], [-35.7707037, -9.5901959], [-35.7708402, -9.589486], [-35.7714608, -9.5881091], [-35.7723173, -9.5859496], [-35.7742596, -9.5811723], [-35.7747907, -9.5817478], [-35.7748776, -9.5820722], [-35.7749459, -9.5827943], [-35.7750328, -9.5832105], [-35.775312, -9.5835164], [-35.7782291, -9.585028], [-35.7784463, -9.5849179], [-35.7786201, -9.5849179], [-35.7788621, -9.5850709], [-35.7789242, -9.5852851], [-35.7789056, -9.5854319], [-35.7791538, -9.5855299], [-35.7798117, -9.5855666], [-35.7801344, -9.5841529], [-35.781295, -9.5827086], [-35.7815185, -9.5825985], [-35.7844045, -9.5819314], [-35.784752, -9.5819743], [-35.787427, -9.5835164], [-35.7877808, -9.5833329], [-35.7879359, -9.5831003], [-35.7883518, -9.5826291], [-35.7889414, -9.5824332], [-35.7895558, -9.582372], [-35.7899158, -9.5821762], [-35.790313, -9.5815214], [-35.7893572, -9.5804688], [-35.7898599, -9.5805116], [-35.7901082, -9.5795385], [-35.7902013, -9.5798078], [-35.7902385, -9.580022], [-35.7901187, -9.5802627], [-35.79046, -9.5804387], [-35.7906617, -9.5807676], [-35.7909333, -9.5807829], [-35.791197, -9.5812113], [-35.7918953, -9.5815249], [-35.7919728, -9.5818692], [-35.7914686, -9.5822058], [-35.7908479, -9.581961], [-35.7902583, -9.5829019], [-35.7891334, -9.5830549], [-35.7883886, -9.5834221], [-35.7884429, -9.5841029], [-35.7888774, -9.584646], [-35.7932839, -9.5860001], [-35.7938037, -9.5865814], [-35.7938037, -9.5871628]]]}}]}