{"type": "FeatureCollection", "features": [{"type": "Feature", "properties": {"place_id": 14867002, "osm_type": "relation", "osm_id": 402823, "place_rank": 20, "category": "boundary", "type": "administrative", "importance": 0.14673040283817804, "addresstype": "suburb", "name": "Santos Dumont", "display_name": "Santos Dumont, Maceió, Alagoas, Região Nordeste, Brasil"}, "bbox": [-35.8071944, -9.5730312, -35.777954, -9.531583], "geometry": {"type": "Polygon", "coordinates": [[[-35.8071944, -9.5666014], [-35.806924, -9.5665254], [-35.8067694, -9.5665018], [-35.8064578, -9.5665031], [-35.8062316, -9.5665317], [-35.8060927, -9.5665631], [-35.8057823, -9.5666515], [-35.8050152, -9.5670002], [-35.8048363, -9.5670846], [-35.8047538, -9.5671231], [-35.8040792, -9.5674496], [-35.8038849, -9.5675917], [-35.8038016, -9.567676], [-35.8037094, -9.5677922], [-35.8036354, -9.5679149], [-35.8035938, -9.5680335], [-35.8035653, -9.5681839], [-35.8035596, -9.5683514], [-35.8035724, -9.5685383], [-35.8036239, -9.5690633], [-35.8036441, -9.5692691], [-35.8036351, -9.5694701], [-35.8035869, -9.5696628], [-35.8031649, -9.5709447], [-35.8030685, -9.5712002], [-35.8029702, -9.5713789], [-35.8028842, -9.5715249], [-35.8027639, -9.5716949], [-35.8024303, -9.5720667], [-35.8020367, -9.5724461], [-35.8017866, -9.5726173], [-35.8016511, -9.5727078], [-35.8013785, -9.5728407], [-35.8007651, -9.5729955], [-35.8001295, -9.5730312], [-35.7998658, -9.572998], [-35.7997196, -9.5729317], [-35.7995094, -9.5728144], [-35.7992307, -9.572523], [-35.7990509, -9.5721207], [-35.7988575, -9.5716738], [-35.7985206, -9.5710358], [-35.7980576, -9.5702196], [-35.7972333, -9.5694163], [-35.7941591, -9.5679245], [-35.7931894, -9.5670352], [-35.7895528, -9.5648836], [-35.7893782, -9.5647115], [-35.7879527, -9.564415], [-35.7842154, -9.564953], [-35.7783521, -9.5657729], [-35.777954, -9.565583], [-35.7780515, -9.5652377], [-35.7870112, -9.5481554], [-35.7910017, -9.5412707], [-35.793474, -9.5368833], [-35.7960123, -9.5325037], [-35.7962119, -9.531583], [-35.7970563, -9.534139], [-35.7972564, -9.534399], [-35.7974282, -9.5349812], [-35.7973387, -9.5354283], [-35.7980711, -9.5369723], [-35.7998447, -9.54205], [-35.8071944, -9.5666014]]]}}]}