{"type": "FeatureCollection", "features": [{"type": "Feature", "properties": {"place_id": 14821372, "osm_type": "relation", "osm_id": 401796, "place_rank": 20, "category": "boundary", "type": "administrative", "importance": 0.14673040283817804, "addresstype": "suburb", "name": "Santo Amaro", "display_name": "Santo Amaro, Maceió, Alagoas, Região Nordeste, Brasil"}, "bbox": [-35.7446964, -9.6122996, -35.7401766, -9.6047878], "geometry": {"type": "Polygon", "coordinates": [[[-35.7446964, -9.6095458], [-35.744366, -9.6099666], [-35.744366, -9.6104959], [-35.7441948, -9.6115294], [-35.74385, -9.6118587], [-35.7433662, -9.6122441], [-35.7431163, -9.6122996], [-35.7426033, -9.6116521], [-35.7419648, -9.6115188], [-35.7418378, -9.6114659], [-35.7401766, -9.6102757], [-35.7402753, -9.6094556], [-35.7404292, -9.6082938], [-35.740578, -9.6077111], [-35.7407886, -9.6071954], [-35.7410809, -9.606618], [-35.741117, -9.6065628], [-35.7414236, -9.6060941], [-35.7415225, -9.6059883], [-35.7418751, -9.6056109], [-35.742002, -9.6054751], [-35.7423919, -9.6051307], [-35.7426799, -9.6049237], [-35.742869, -9.6047878], [-35.744132, -9.605664], [-35.7440769, -9.6064377], [-35.743953, -9.6074421], [-35.7440081, -9.6079985], [-35.7442559, -9.6085007], [-35.7446138, -9.6089894], [-35.7446964, -9.6095458]]]}}]}