{"type": "FeatureCollection", "features": [{"type": "Feature", "properties": {"place_id": 14736733, "osm_type": "relation", "osm_id": 402204, "place_rank": 20, "category": "boundary", "type": "administrative", "importance": 0.14673040283817804, "addresstype": "suburb", "name": "Santa Lúcia", "display_name": "Santa Lúcia, Maceió, Alagoas, Região Nordeste, Brasil"}, "bbox": [-35.7645698, -9.5933226, -35.7396491, -9.5706361], "geometry": {"type": "Polygon", "coordinates": [[[-35.7645698, -9.5843546], [-35.7644839, -9.5844719], [-35.7641488, -9.5849294], [-35.7637267, -9.5855057], [-35.7636098, -9.585657], [-35.7631448, -9.5862587], [-35.7628808, -9.5866004], [-35.7626475, -9.5869091], [-35.7620288, -9.5877276], [-35.761519, -9.5884021], [-35.761413, -9.5885455], [-35.760663, -9.5895608], [-35.7606164, -9.5896239], [-35.7603043, -9.589956], [-35.7600989, -9.5901746], [-35.7598888, -9.5903201], [-35.7596308, -9.5904989], [-35.7588015, -9.5909869], [-35.758525, -9.5911496], [-35.7578415, -9.5915521], [-35.7570241, -9.5920245], [-35.756146, -9.592532], [-35.755519, -9.5928944], [-35.7551428, -9.5931118], [-35.7548024, -9.5933086], [-35.754588, -9.5929497], [-35.7541045, -9.5925837], [-35.7532398, -9.5910089], [-35.7512125, -9.5926433], [-35.7505219, -9.5928306], [-35.7497363, -9.593171], [-35.7494462, -9.5933226], [-35.7466077, -9.590694], [-35.7445841, -9.5892639], [-35.7451228, -9.5884876], [-35.7452065, -9.5872367], [-35.7451228, -9.5861518], [-35.745773, -9.5853431], [-35.7458835, -9.5852614], [-35.745476, -9.58488], [-35.7449235, -9.5848324], [-35.7446265, -9.5844442], [-35.7442812, -9.5844306], [-35.7421446, -9.5855622], [-35.7412003, -9.5864134], [-35.7406203, -9.585509], [-35.7396491, -9.5851499], [-35.739899, -9.5826753], [-35.7405995, -9.5820322], [-35.7409014, -9.5813295], [-35.7415174, -9.5803768], [-35.7416019, -9.5802577], [-35.7418555, -9.580091], [-35.7418555, -9.5796622], [-35.7420971, -9.5794121], [-35.7425681, -9.5792454], [-35.7429667, -9.5793288], [-35.7431599, -9.5786619], [-35.7435706, -9.5785309], [-35.743329, -9.5781617], [-35.743643, -9.5780426], [-35.743643, -9.577852], [-35.7446213, -9.5767206], [-35.7457687, -9.5753511], [-35.746276, -9.5744102], [-35.7464546, -9.5744253], [-35.7466987, -9.574446], [-35.7487156, -9.5709565], [-35.7503987, -9.5714658], [-35.7513852, -9.5717244], [-35.7515194, -9.5707134], [-35.7527163, -9.5708186], [-35.7528149, -9.5706361], [-35.7613203, -9.5768781], [-35.759971, -9.5787229], [-35.7612039, -9.5793389], [-35.7622322, -9.5798103], [-35.7630997, -9.5805055], [-35.7623733, -9.5814394], [-35.763223, -9.5819657], [-35.7639228, -9.58242], [-35.7632186, -9.5834293], [-35.7645698, -9.5843546]]]}}]}