{"type": "FeatureCollection", "features": [{"type": "Feature", "properties": {"place_id": 14724424, "osm_type": "relation", "osm_id": 401809, "place_rank": 20, "category": "boundary", "type": "administrative", "importance": 0.14673040283817804, "addresstype": "suburb", "name": "São Jorge", "display_name": "São Jorge, Maceió, Alagoas, Região Nordeste, Brasil"}, "bbox": [-35.7139289, -9.6309404, -35.6916998, -9.6068007], "geometry": {"type": "Polygon", "coordinates": [[[-35.7139289, -9.6233442], [-35.7138627, -9.6238488], [-35.7134583, -9.6253475], [-35.7134444, -9.6256225], [-35.7134641, -9.6265627], [-35.713519, -9.6267069], [-35.7135418, -9.6271124], [-35.7136089, -9.6276438], [-35.7131069, -9.6281168], [-35.7124933, -9.6286558], [-35.7120358, -9.6296787], [-35.7117792, -9.6298987], [-35.7117346, -9.6300527], [-35.7111768, -9.6308007], [-35.7108405, -9.6309404], [-35.7101872, -9.6304657], [-35.7102108, -9.6301167], [-35.7099277, -9.6300004], [-35.7099513, -9.6295584], [-35.7097389, -9.6287442], [-35.7094086, -9.6285348], [-35.7094322, -9.628023], [-35.7091726, -9.6275577], [-35.7083467, -9.6269296], [-35.7081461, -9.6257838], [-35.7081616, -9.6254363], [-35.7082609, -9.6235297], [-35.7082779, -9.6232048], [-35.7080946, -9.6220712], [-35.7080466, -9.6217742], [-35.7074587, -9.6222571], [-35.7073637, -9.6222821], [-35.7072623, -9.6222603], [-35.7069931, -9.6221166], [-35.7064927, -9.6219886], [-35.7057327, -9.6219199], [-35.7040983, -9.6217556], [-35.7040983, -9.6212494], [-35.7037812, -9.620773], [-35.7032979, -9.620639], [-35.7023465, -9.6204305], [-35.7018633, -9.6201476], [-35.7015008, -9.6197456], [-35.7009874, -9.6194776], [-35.7003229, -9.6193287], [-35.6998699, -9.6189565], [-35.698556, -9.6187629], [-35.6986523, -9.6184724], [-35.6989839, -9.6181552], [-35.6994094, -9.6180577], [-35.6997707, -9.6180772], [-35.7005921, -9.6177259], [-35.7012107, -9.6174429], [-35.7015499, -9.6172168], [-35.7020416, -9.6171985], [-35.7017715, -9.6157234], [-35.7016354, -9.6155953], [-35.7010725, -9.6157173], [-35.7006272, -9.6156868], [-35.700188, -9.6158637], [-35.6991983, -9.6160283], [-35.6986624, -9.6158112], [-35.6984099, -9.615705], [-35.6977564, -9.6154301], [-35.6973818, -9.6153705], [-35.697104, -9.6156207], [-35.6966207, -9.6155373], [-35.6962583, -9.6153586], [-35.6958596, -9.615299], [-35.6954126, -9.6149298], [-35.6940232, -9.613286], [-35.6940716, -9.6128929], [-35.6933588, -9.6120234], [-35.6931655, -9.6120234], [-35.6928997, -9.6116065], [-35.6925372, -9.610999], [-35.6916998, -9.6107226], [-35.6923884, -9.6087066], [-35.692621, -9.6079025], [-35.6931797, -9.6072623], [-35.6942066, -9.6070687], [-35.6948409, -9.6071432], [-35.6958829, -9.6074856], [-35.6964568, -9.6074112], [-35.6971061, -9.6072176], [-35.6976498, -9.607024], [-35.6984502, -9.6068007], [-35.6992506, -9.6068751], [-35.7003228, -9.6072146], [-35.7014645, -9.6075631], [-35.702591, -9.6088823], [-35.7027843, -9.6099931], [-35.7029776, -9.6110175], [-35.7033398, -9.6119551], [-35.7034276, -9.6122826], [-35.703565, -9.6125937], [-35.703797, -9.6128994], [-35.704102, -9.6131308], [-35.7044565, -9.6133663], [-35.7046062, -9.6136459], [-35.7049832, -9.6137889], [-35.7052054, -9.6140938], [-35.7056201, -9.6142703], [-35.7059878, -9.6143217], [-35.7064812, -9.6143225], [-35.7068485, -9.6142653], [-35.7074091, -9.6141605], [-35.707815, -9.6143606], [-35.7089199, -9.6144425], [-35.7089646, -9.6159297], [-35.7092055, -9.6163345], [-35.7095983, -9.6166601], [-35.7100624, -9.6168713], [-35.7111691, -9.6168185], [-35.7112762, -9.6172321], [-35.7113833, -9.6172321], [-35.7115351, -9.6180769], [-35.7116957, -9.6180857], [-35.7118921, -9.6192209], [-35.7128828, -9.6206993], [-35.7131952, -9.6210601], [-35.713222, -9.6212185], [-35.7135701, -9.6215881], [-35.7135611, -9.6220281], [-35.7137575, -9.6223185], [-35.7138867, -9.6231071], [-35.7139289, -9.6233442]]]}}]}