{"type": "FeatureCollection", "features": [{"type": "Feature", "properties": {"place_id": 14819390, "osm_type": "relation", "osm_id": 402033, "place_rank": 20, "category": "boundary", "type": "administrative", "importance": 0.14673040283817804, "addresstype": "suburb", "name": "Serraria", "display_name": "Serraria, Maceió, Alagoas, Região Nordeste, Brasil"}, "bbox": [-35.7341982, -9.6172469, -35.6984502, -9.5833697], "geometry": {"type": "Polygon", "coordinates": [[[-35.7341982, -9.5943098], [-35.7319516, -9.5950803], [-35.731716, -9.5956083], [-35.7309234, -9.5964743], [-35.7306663, -9.5971502], [-35.730345, -9.5976149], [-35.7297284, -9.5983616], [-35.7293597, -9.5984808], [-35.7288707, -9.5986687], [-35.7284386, -9.5996214], [-35.7280915, -9.6001436], [-35.7275535, -9.600184], [-35.7275535, -9.6004814], [-35.7278825, -9.6009004], [-35.7280881, -9.6018061], [-35.7276905, -9.6022792], [-35.7278825, -9.6025361], [-35.7278276, -9.6030497], [-35.7278139, -9.6034823], [-35.7279647, -9.6036985], [-35.7284994, -9.6044285], [-35.7284583, -9.604861], [-35.7281978, -9.605199], [-35.7282801, -9.6055369], [-35.7286365, -9.6057667], [-35.7288284, -9.6063479], [-35.7289107, -9.6068616], [-35.728705, -9.6073887], [-35.7285817, -9.6079429], [-35.7286776, -9.608362], [-35.7289929, -9.6085377], [-35.7291437, -9.6089432], [-35.7289107, -9.6092541], [-35.7287013, -9.6093806], [-35.7284857, -9.6095109], [-35.7285679, -9.6098894], [-35.7286077, -9.6099108], [-35.7288696, -9.6100516], [-35.7288156, -9.6106464], [-35.7288558, -9.6110924], [-35.729226, -9.611579], [-35.729747, -9.6118629], [-35.7298566, -9.6123495], [-35.7296887, -9.6125289], [-35.7298542, -9.612853], [-35.7303973, -9.6129837], [-35.7312817, -9.6127712], [-35.7316523, -9.6130431], [-35.7318419, -9.6132385], [-35.7323246, -9.613468], [-35.7326003, -9.6142582], [-35.7324711, -9.614904], [-35.7322137, -9.6150475], [-35.7321149, -9.6150942], [-35.7318678, -9.6152014], [-35.7312904, -9.6153628], [-35.7307991, -9.6156432], [-35.7303682, -9.6159831], [-35.7303854, -9.6163995], [-35.7301355, -9.6166204], [-35.7297994, -9.6167309], [-35.7295581, -9.6167904], [-35.7294805, -9.6170708], [-35.7291985, -9.6172469], [-35.7288919, -9.6170489], [-35.7284816, -9.6169454], [-35.7284434, -9.6167854], [-35.7285198, -9.6165126], [-35.7286629, -9.6162398], [-35.728787, -9.6158917], [-35.7287202, -9.6156282], [-35.7285675, -9.6154213], [-35.7282431, -9.6152237], [-35.7283099, -9.6150449], [-35.7280904, -9.6148756], [-35.7279377, -9.6148286], [-35.7279377, -9.614631], [-35.727661, -9.6140853], [-35.7190539, -9.6141199], [-35.7177923, -9.6155182], [-35.717614, -9.6155152], [-35.7175077, -9.6153549], [-35.7176234, -9.6144978], [-35.7179017, -9.6129996], [-35.7181329, -9.6123766], [-35.7185054, -9.6117865], [-35.72082, -9.6091372], [-35.7213635, -9.6084086], [-35.7212776, -9.6077485], [-35.7208196, -9.6070052], [-35.7207433, -9.6067324], [-35.7195696, -9.6066948], [-35.7189016, -9.6073533], [-35.7188253, -9.6076638], [-35.7183577, -9.6077673], [-35.7177757, -9.6077015], [-35.7172031, -9.607598], [-35.7169073, -9.6077297], [-35.7167546, -9.6079178], [-35.7167833, -9.6083506], [-35.7165829, -9.6085388], [-35.7166592, -9.6086423], [-35.7166592, -9.6090657], [-35.7158291, -9.6100347], [-35.715705, -9.609856], [-35.7154474, -9.6099783], [-35.7155333, -9.610157], [-35.7153997, -9.6102135], [-35.7155714, -9.6104487], [-35.7152374, -9.6107686], [-35.7150084, -9.6110132], [-35.714684, -9.6109661], [-35.7145313, -9.6111449], [-35.7147413, -9.6112672], [-35.7137039, -9.6118289], [-35.713097, -9.6121809], [-35.7120795, -9.6130521], [-35.7114547, -9.6135361], [-35.7113298, -9.6138529], [-35.7111781, -9.6141257], [-35.7109051, -9.6141824], [-35.7103658, -9.6143281], [-35.7099731, -9.6142489], [-35.7096072, -9.6143017], [-35.7089199, -9.6144425], [-35.707815, -9.6143606], [-35.7074091, -9.6141605], [-35.7068485, -9.6142653], [-35.7064812, -9.6143225], [-35.7059878, -9.6143217], [-35.7056201, -9.6142703], [-35.7052054, -9.6140938], [-35.7049832, -9.6137889], [-35.7046062, -9.6136459], [-35.7044565, -9.6133663], [-35.704102, -9.6131308], [-35.703797, -9.6128994], [-35.703565, -9.6125937], [-35.7034276, -9.6122826], [-35.7033398, -9.6119551], [-35.7029776, -9.6110175], [-35.7027843, -9.6099931], [-35.702591, -9.6088823], [-35.7014645, -9.6075631], [-35.7003228, -9.6072146], [-35.6992506, -9.6068751], [-35.6984502, -9.6068007], [-35.6990382, -9.6059231], [-35.6994399, -9.6053423], [-35.6999754, -9.6051575], [-35.7000289, -9.6044182], [-35.7009929, -9.6038902], [-35.7011, -9.6028606], [-35.7024924, -9.602227], [-35.7034295, -9.6003261], [-35.7031082, -9.5994548], [-35.7025191, -9.598346], [-35.7024656, -9.5974219], [-35.7028404, -9.5966035], [-35.7036705, -9.5964715], [-35.7039383, -9.5954682], [-35.7043935, -9.5949138], [-35.7050361, -9.5943329], [-35.7062946, -9.5944386], [-35.7068837, -9.5950194], [-35.707446, -9.5957322], [-35.7079815, -9.5950458], [-35.7089722, -9.5948346], [-35.7094006, -9.5952042], [-35.7096148, -9.5957322], [-35.7102307, -9.5955474], [-35.7107394, -9.5949138], [-35.7109138, -9.5943874], [-35.7122162, -9.5942658], [-35.7130936, -9.5939549], [-35.7133541, -9.593644], [-35.7134535, -9.5932452], [-35.7138851, -9.593035], [-35.7144174, -9.5927267], [-35.7154167, -9.5916569], [-35.7161568, -9.5902079], [-35.71726, -9.5889364], [-35.7192029, -9.5870133], [-35.7192339, -9.5860828], [-35.7194556, -9.5854999], [-35.7199751, -9.5855189], [-35.720471, -9.5851894], [-35.721828, -9.5846054], [-35.7225627, -9.5840678], [-35.7239615, -9.5833697], [-35.724527, -9.5835218], [-35.7251782, -9.5835049], [-35.725898, -9.5835894], [-35.7265149, -9.584147], [-35.7267891, -9.584654], [-35.727149, -9.5852285], [-35.7279715, -9.5857523], [-35.728661, -9.5858859], [-35.7288295, -9.5861559], [-35.7290541, -9.5864327], [-35.729735, -9.5869449], [-35.7302404, -9.5869656], [-35.7308721, -9.5868272], [-35.7312663, -9.5868364], [-35.7307631, -9.5872572], [-35.730579, -9.5875362], [-35.7306329, -9.5878197], [-35.7318054, -9.5869294], [-35.7324145, -9.5875002], [-35.7328971, -9.5881382], [-35.7333797, -9.5890358], [-35.7338513, -9.59042], [-35.73395, -9.5912852], [-35.733959, -9.5921783], [-35.7339376, -9.5930866], [-35.7335092, -9.5939314], [-35.7341982, -9.5943098]]]}}]}