{"type": "FeatureCollection", "features": [{"type": "Feature", "properties": {"place_id": 14813552, "osm_type": "relation", "osm_id": 402049, "place_rank": 20, "category": "boundary", "type": "administrative", "importance": 0.14673040283817804, "addresstype": "suburb", "name": "Tabuleiro dos Martins", "display_name": "Tabuleiros dos Martins, Maceió, Alagoas, Região Nordeste, Brasil"}, "bbox": [-35.7780827, -9.6007152, -35.7457381, -9.5542875], "geometry": {"type": "Polygon", "coordinates": [[[-35.7780827, -9.5661002], [-35.7777203, -9.5665632], [-35.7773975, -9.566857], [-35.7771684, -9.5671904], [-35.7768988, -9.5676436], [-35.7768555, -9.568389], [-35.7767762, -9.568635], [-35.7756622, -9.5749931], [-35.7757015, -9.5758403], [-35.7756823, -9.5765075], [-35.7753863, -9.5775131], [-35.7753329, -9.5776573], [-35.7752851, -9.5779159], [-35.7751773, -9.578828], [-35.7742596, -9.5811723], [-35.7723173, -9.5859496], [-35.7714608, -9.5881091], [-35.7708402, -9.589486], [-35.7707037, -9.5901959], [-35.770654, -9.5908262], [-35.7706354, -9.591634], [-35.7699787, -9.5914684], [-35.7706772, -9.5947275], [-35.770294, -9.5946816], [-35.7701885, -9.5945776], [-35.7700458, -9.5945776], [-35.7698906, -9.5944001], [-35.7694438, -9.5944307], [-35.7692824, -9.5944062], [-35.7683328, -9.5945531], [-35.76909, -9.5962176], [-35.7699527, -9.5989041], [-35.7691583, -9.598439], [-35.768578, -9.6007152], [-35.7678623, -9.600267], [-35.7674321, -9.5994696], [-35.7665546, -9.5995714], [-35.7660556, -9.5993848], [-35.765264, -9.5996393], [-35.7637326, -9.5986213], [-35.7636121, -9.5973318], [-35.7630723, -9.5967268], [-35.7617739, -9.5955761], [-35.7617059, -9.5953625], [-35.7578415, -9.5915521], [-35.758525, -9.5911496], [-35.7588015, -9.5909869], [-35.7596308, -9.5904989], [-35.7598888, -9.5903201], [-35.7600989, -9.5901746], [-35.7603043, -9.589956], [-35.7606164, -9.5896239], [-35.760663, -9.5895608], [-35.761413, -9.5885455], [-35.761519, -9.5884021], [-35.7620288, -9.5877276], [-35.7626475, -9.5869091], [-35.7628808, -9.5866004], [-35.7631448, -9.5862587], [-35.7636098, -9.585657], [-35.7637267, -9.5855057], [-35.7641488, -9.5849294], [-35.7644839, -9.5844719], [-35.7645698, -9.5843546], [-35.7632186, -9.5834293], [-35.7639228, -9.58242], [-35.763223, -9.5819657], [-35.7623733, -9.5814394], [-35.7630997, -9.5805055], [-35.7622322, -9.5798103], [-35.7612039, -9.5793389], [-35.759971, -9.5787229], [-35.7613203, -9.5768781], [-35.7528149, -9.5706361], [-35.7527163, -9.5708186], [-35.7515194, -9.5707134], [-35.7513852, -9.5717244], [-35.7503987, -9.5714658], [-35.7475743, -9.5661078], [-35.7470096, -9.5651917], [-35.7466219, -9.5643119], [-35.7457381, -9.5621783], [-35.7468761, -9.5594723], [-35.7473828, -9.5582244], [-35.7476107, -9.5577265], [-35.7478498, -9.5572732], [-35.7480217, -9.5570087], [-35.7481703, -9.5568304], [-35.7484675, -9.5564524], [-35.7489796, -9.555801], [-35.7500174, -9.5549853], [-35.7511842, -9.5544891], [-35.752288, -9.5542875], [-35.7536372, -9.5543434], [-35.7547222, -9.5545822], [-35.7585597, -9.5564901], [-35.765329, -9.5598555], [-35.7664478, -9.5604347], [-35.7762461, -9.565507], [-35.7768185, -9.5655318], [-35.7772336, -9.5653178], [-35.7776266, -9.5650238], [-35.7777134, -9.565221], [-35.7780069, -9.5652218], [-35.7780515, -9.5652377], [-35.777954, -9.565583], [-35.7780827, -9.5661002]]]}}]}