{"type": "FeatureCollection", "features": [{"type": "Feature", "properties": {"place_id": 14727403, "osm_type": "relation", "osm_id": 400175, "place_rank": 20, "category": "boundary", "type": "administrative", "importance": 0.14673040283817804, "addresstype": "suburb", "name": "Trapiche da Barra", "display_name": "Trapiche da Barra, Maceió, Alagoas, Região Nordeste, Brasil"}, "bbox": [-35.7679777, -9.6811833, -35.7523732, -9.66372], "geometry": {"type": "Polygon", "coordinates": [[[-35.7679777, -9.6742459], [-35.7677639, -9.6748607], [-35.765795, -9.6748874], [-35.7655901, -9.6753417], [-35.7655963, -9.675757], [-35.7641702, -9.6761113], [-35.7639137, -9.676122], [-35.7631787, -9.6762763], [-35.763376, -9.6767363], [-35.7601229, -9.6777426], [-35.7588725, -9.6811833], [-35.7579416, -9.6805116], [-35.7568314, -9.6797951], [-35.754511, -9.6786027], [-35.7529628, -9.677583], [-35.7523732, -9.6771917], [-35.753895, -9.6740015], [-35.754052, -9.6736956], [-35.7541529, -9.6734958], [-35.7542266, -9.6732912], [-35.7553153, -9.671039], [-35.7536615, -9.6705596], [-35.7545163, -9.6677171], [-35.7545758, -9.6677315], [-35.7554984, -9.6679547], [-35.7559253, -9.6680579], [-35.7577401, -9.6679621], [-35.7577474, -9.6649858], [-35.7577451, -9.6647474], [-35.7577408, -9.6641959], [-35.760183, -9.6640469], [-35.7645839, -9.663777], [-35.7655141, -9.66372], [-35.7649137, -9.6650178], [-35.7648418, -9.6660767], [-35.7645567, -9.6666379], [-35.7649398, -9.6672259], [-35.7651269, -9.6685533], [-35.7653318, -9.670335], [-35.7660267, -9.6709408], [-35.7662939, -9.67209], [-35.7676124, -9.6734709], [-35.7679777, -9.6742459]]]}}]}