{"type": "FeatureCollection", "features": [{"type": "Feature", "properties": {"place_id": 14702908, "osm_type": "relation", "osm_id": 400185, "place_rank": 20, "category": "boundary", "type": "administrative", "importance": 0.14673040283817804, "addresstype": "suburb", "name": "Vergel do Lago", "display_name": "Vergel do Lago, Maceió, Alagoas, Região Nordeste, Brasil"}, "bbox": [-35.7669307, -9.660403, -35.7517109, -9.6488826], "geometry": {"type": "Polygon", "coordinates": [[[-35.7669307, -9.6574548], [-35.7661613, -9.6577856], [-35.7659918, -9.6578585], [-35.7608738, -9.660059], [-35.7606822, -9.6596323], [-35.7597745, -9.6595954], [-35.7588081, -9.6595097], [-35.7587906, -9.6592645], [-35.7583235, -9.6592733], [-35.7559268, -9.660403], [-35.7528877, -9.6566584], [-35.7520653, -9.6558071], [-35.7519382, -9.6556755], [-35.7517109, -9.6554403], [-35.7522004, -9.65482], [-35.7525404, -9.6543567], [-35.7527665, -9.6537868], [-35.7528879, -9.652791], [-35.7531308, -9.6518943], [-35.7535306, -9.651132], [-35.7549431, -9.6497495], [-35.7560323, -9.6490507], [-35.756277, -9.6488826], [-35.7565666, -9.648905], [-35.7573395, -9.6492472], [-35.7582837, -9.6489507], [-35.7594012, -9.6490237], [-35.7597387, -9.6489416], [-35.7600534, -9.6490693], [-35.7608334, -9.6497216], [-35.7618141, -9.6503191], [-35.7628814, -9.650611], [-35.7629407, -9.6512952], [-35.7635291, -9.6515871], [-35.7650389, -9.6525313], [-35.7648564, -9.6531243], [-35.764934, -9.6532702], [-35.7649431, -9.6540548], [-35.7651301, -9.6542646], [-35.7653217, -9.6545748], [-35.765422, -9.6548165], [-35.7656024, -9.6549761], [-35.765682, -9.6551951], [-35.7659375, -9.6554095], [-35.7668634, -9.6570333], [-35.7669307, -9.6574548]]]}}]}